Pharmacy Name,Address,City,Province,lon,lat
AIRDRIE DRUG MART,101-124 1 AVE NE,Airdrie,Alberta,-114.0121116,51.2928129
AIRDRIE MEDICAL REMEDY'S RX PHARMACY,10-620 1 AVE NW,Airdrie,Alberta,-114.022905,51.293117
APPLE PHARMACY,229 1 ST SW,Airdrie,Alberta,-114.0153942,51.2902919
CALGARY CO-OP PHARMACY #19,100-2700 MAIN ST,Airdrie,Alberta,-114.0128842,51.2908601
CREEKSIDE PHARMACY,1113-403 MACKENZIE WAY SW,Airdrie,Alberta,-114.0231277,51.2891003
DRUGSTORE PHARMACY #1540,300 VETERANS BLVD NE,Airdrie,Alberta,-114.0093148,51.3014487
LOBLAW PHARMACY #4951,1050 YANKEE VALLEY BLVD,Airdrie,Alberta,-113.9907034,51.2717422
LONDON DRUGS #84,110-2781 MAIN ST SW,Airdrie,Alberta,-114.0075188,51.2638711
MEDICINE SHOPPE PHARMACY 411,3-704 MAIN ST SE,Airdrie,Alberta,-114.0130533,51.2865228
MIDTOWN PHARMASAVE #363,202-1 MIDTOWN BLVD SW,Airdrie,Alberta,-114.0237935,51.2847237
PHARMASAVE #338,101-209 CENTRE AVE SW,Airdrie,Alberta,-114.0156688,51.291186
PHARMASAVE LUXSTONE 3023,101B-2002 LUXSTONE BLVD SW,Airdrie,Alberta,-114.0180162,51.2713661
PHARMEDIC PHARMACY #4,506-3 STONEGATE DR NW,Airdrie,Alberta,-114.0142852,51.3012459
POLARIS TRAVEL CLINIC AND PHARMACY,404-191 EDWARDS WAY SW,Airdrie,Alberta,-114.0198484,51.2916011
SAFEWAY PHARMACY #8830,TOWER LANE MALL,Airdrie,Alberta,-114.0178831,51.2886391
SANDSTONE PHARMACIES AIRDRIE,25-1301 8 ST SW,Airdrie,Alberta,-114.025604,51.2725396
SAVE-ON-FOODS PHARMACY #6602,1400 MARKET ST SE,Airdrie,Alberta,-113.9908645,51.2702318
SAVE-ON-FOODS PHARMACY #6603 - AIRDRIE WEST,601-401 COOPERS BLVD SW,Airdrie,Alberta,-114.0213644,51.2569043
SHOPPERS DRUG MART #2328,1200 MARKET ST SE,Airdrie,Alberta,-113.9922707,51.2703168
SHOPPERS DRUG MART #2360,836 1 AVE NW,Airdrie,Alberta,-114.0242795,51.2930608
SHOPPERS DRUG MART #2386,310-505 MAIN ST,Airdrie,Alberta,-114.015097,51.288663
SHOPPERS DRUG MART #2431 COOPERS CROSSING,801-401 COOPERS BLVD SW,Airdrie,Alberta,-114.023069,51.258293
SOBEYS PHARMACY #5172,100-65 MACKENZIE WAY SW,Airdrie,Alberta,-114.0245871,51.2905214
UNIVERSAL HEALTH PHARMACY #6,3-1861 MEADOWBROOK DR SE,Airdrie,Alberta,-113.9888875,51.2754015
WAL-MART PHARMACY #1050,2881 MAIN ST SW,Airdrie,Alberta,-114.0071197,51.262447
GUARDIAN BEACH PHARMACY,101-4705 46A AVE,Alberta Beach,Alberta,-114.349869,53.676159
ALIX DRUGS LTD.,4904 50 AVE,Alix,Alberta,-113.1908467,52.4001885
ANDREW PHARMACY AND HOME HEALTHCARE,5022 51 St,ANDREW,Alberta,-112.3351908,53.8789667
ARROWWOOD PHARMACY,3-6 RAILWAY AVE W,ARROWWOOD,Alberta,-113.1523947,50.7372479
ATHABASCA VALUE DRUG MART,4911 50 ST,ATHABASCA,Alberta,-113.286275,54.720229
LOBLAW PHARMACY #4904,5007 52 ST,ATHABASCA,Alberta,-113.2899521,54.7219072
MEDICINE SHOPPE PHARMACY 368,2810B 48 AVE,ATHABASCA,Alberta,-113.2490389,54.7188811
RX DRUG MART #2016,4923 50 ST,ATHABASCA,Alberta,-113.2862853,54.7209718
GOURLAY'S PHARMACY,104-220 BEAR ST,BANFF,Alberta,-115.5720205,51.1778431
IGA PHARMACY #8805,318 MARTEN ST,BANFF,Alberta,-115.5715802,51.1793484
BARRHEAD PEOPLES PHARMACY ,B-5120 50 ST,BARRHEAD,Alberta,-114.4036982,54.1209249
PEMBINA WEST CO-OP PHARMACY,4705 49 ST,BARRHEAD,Alberta,-114.4007452,54.1156199
RITA'S APOTHECARY & HOME HEALTHCARE,5036A 50 ST,BARRHEAD,Alberta,-114.4043333,54.1202129
PHARMASAVE BASHAW #319,5010 50 ST,BASHAW,Alberta,-112.971155,52.5838733
BASSANO PHARMACY,401 2 AVE,BASSANO,Alberta,-112.469278,50.7872476
BEAUMONT CENTRE PHARMACY,5003 50 AVE,BEAUMONT,Alberta,-113.4159844,53.3520277
BEAUMONT MEDX DRUGS,108-6202 29 AVE,BEAUMONT,Alberta,-113.4306911,53.339314
LOBLAW PHARMACY #4009,5201 30 AVE,BEAUMONT,Alberta,-113.4167584,53.3384175
PHARMASAVE MAINA CENTRE VILLE,104-5010 50 ST,BEAUMONT,Alberta,-113.4158946,53.3527338
REXALL #7226,5910 50 ST NW,BEAUMONT,Alberta,-113.4172261,53.361385
SHOPPERS DRUG MART #2358,6302 50 ST,BEAUMONT,Alberta,-113.4159368,53.3635264
SOBEYS PHARMACY #3184,5802 50 ST,BEAUMONT,Alberta,-113.4171791,53.3602793
MINT HEALTH + DRUGS: BEAVERLODGE,112 10 ST,BEAVERLODGE,Alberta,-119.4291626,55.2098866
REXALL #7507,1032 1 AVE,BEAVERLODGE,Alberta,-119.4313102,55.2116155
BEISEKER PHARMACY  ,205 6 ST,BEISEKER,Alberta,-113.5379317,51.3848255
BENTLEY IDA ,5018 50 AVE,BENTLEY,Alberta,-114.05125,52.46534
BERWYN PHARMACY LTD,5115 51 ST,BERWYN,Alberta,-117.7363766,56.1470114
PHARMASAVE #364  ,124 CENTRE AVE W,BLACK DIAMOND,Alberta,-114.2340205,50.6886076
SANDSTONE PHARMACIES BLACK DIAMOND,127 CENTRE AVE W,BLACK DIAMOND,Alberta,-114.2342076,50.6882205
BLACKFALDS PHARMACY,4916 BROADWAY AVE,BLACKFALDS,Alberta,-113.7957746,52.3788442
BLACKFALDS PROFESSIONAL PHARMACY,1-5049 PARKWOOD RD,BLACKFALDS,Alberta,-113.7875492,52.3818023
SANDSTONE PHARMACIES BLACKFALDS,2-5013 PARKWOOD RD,BLACKFALDS,Alberta,-113.7886575,52.3802215
RX DRUG MART #2017 ,12749 20 AVE,BLAIRMORE,Alberta,-114.4401155,49.6083943
TURTLE MOUNTAIN PHARMACY ,7-11001 20 AVE,BLAIRMORE,Alberta,-114.4596999,49.615399
BON ACCORD PHARMACY ,4948 50 AVE,BON ACCORD,Alberta,-113.4121527,53.8363475
DRUGSTORE PHARMACY #6717,5106 46 ST,BONNYVILLE,Alberta,-110.7305808,54.269622
PHARMASAVE #325,4812 50 AVE,BONNYVILLE,Alberta,-110.7360426,54.2677354
PHARMASAVE CLINIC DISPENSARY,102-4610 50 ST,BONNYVILLE,Alberta,-110.740758,54.264447
TELLIER PHARMACY,5015 50 AVE,BONNYVILLE,Alberta,-110.7416147,54.2682737
BOW ISLAND APPLE DRUGS  ,502 1 ST W,BOW ISLAND,Alberta,-111.3813616,49.8702338
BOWDEN GUARDIAN PHARMACY ,BAY 4-2002 20 AVE,BOWDEN,Alberta,-114.0368392,51.9326029
BOYLE RX DRUG MART  ,5118 3 ST,BOYLE,Alberta,-112.8087283,54.5895001
BRAGG CREEK PHARMACY ,20 WHITE AVE,BRAGG CREEK,Alberta,-114.562024,50.951144
BRETON IDA ,5031 50 AVE,BRETON,Alberta,-114.4731956,53.1094425
GREENBROOK PHARMACY,344 8 ST E,BROOKS,Alberta,-111.8805239,50.5659191
PHARMASAVE #345,BAY C -316 8 AVE W,BROOKS,Alberta,-111.8987612,50.5752397
SAFEWAY PHARMACY #8896,550 CASSILS RD W,BROOKS,Alberta,-111.9030956,50.5726931
SHOPPERS DRUG MART #2343,433 CASSILS RD W,BROOKS,Alberta,-111.8999143,50.5715908
WAL-MART PHARMACY #3658,917 3 ST W,BROOKS,Alberta,-111.9014817,50.5773446
BRUDERHEIM PHARMACY,4901 QUEEN ST,BRUDERHEIM,Alberta,-112.9282613,53.8003413
EASTSIDE PHARMACY,3466 17 AVE SE,CALGARY,Alberta,-113.9848652,51.0382496
EDMONTON TRAIL PHARMASAVE #392,103-805 EDMONTON TR NE,CALGARY,Alberta,-114.0545769,51.05907
ELITE PHARMACY,110-6108 BOWNESS RD NW,CALGARY,Alberta,-114.1736994,51.0836575
ELIXIR PHARMACY,102-8 VARSITY ESTATES CIR NW,CALGARY,Alberta,-114.1642442,51.1033502
ERINWOODS PHARMACY,3571 52 STREET SE,CALGARY,Alberta,-113.9592343,51.0224115
ERX PHARMACY,1715 10 AVE SW,CALGARY,Alberta,-114.1003485,51.044133
ESSENCE PHARMACY,150-3650 WESTWINDS DR NE,CALGARY,Alberta,-113.967889,51.1078089
EXCELHEALTH PHARMACY,100-3916 MACLEOD TR SW,CALGARY,Alberta,-114.0708301,50.9987142
FALCON PHARMACY,5425 FALSBRIDGE DR NE,CALGARY,Alberta,-113.9573759,51.097828
FALSHIRE PHARMACY,267-265 FALSHIRE DR NE,CALGARY,Alberta,-113.940345,51.106284
FAMILY CARE PHARMACY,218-40 COUNTRY HILLS LANDNG NW,CALGARY,Alberta,-114.0703797,51.1425149
FOREST HILLS PHARMASAVE #323,3-5315 17 AVE SE,CALGARY,Alberta,-114.0146509,51.0374706
FOREST LAWN PHARMACY,105-4909 17 AVE SE,CALGARY,Alberta,-113.9478885,51.0376218
FORME PHARMACY BRIDGELAND,103-736 1 AVE NE,CALGARY,Alberta,-114.0555439,51.0533475
FUTURE DRUG MART,104-5401 TEMPLE DR NE,CALGARY,Alberta,-113.9568114,51.0849438
FUTURE DRUG MART #2,102-4015 17 AVE SE,CALGARY,Alberta,-114.0647915,51.0380803
GLAMORGAN REMEDY'S RX,14-3919 RICHMOND RD SW,CALGARY,Alberta,-114.1432657,51.0206922
GLENBROOK FAMILY PHARMASAVE,2-3803 26 AVE SW,CALGARY,Alberta,-114.1415088,51.0297263
GLOBAL DRUGS,115-233 16 AVE NW,CALGARY,Alberta,-114.067015,51.0665433
HARRVEST HILL PHARMACY,111-160 96 AVE NE,CALGARY,Alberta,-114.0677131,51.1423019
HEALTH PLUS REMEDY'S RX PHARMACY,120-290 MIDPARK WAY SE,CALGARY,Alberta,-114.0637515,50.9095113
HEALTH WAY PHARMACY,109-5809 MACLEOD TR SW,CALGARY,Alberta,-114.0724731,51.0019142
HEALTH+ PHARMACY,3149 5 AVE NE,CALGARY,Alberta,-113.9880279,51.0564994
HEALTHMED PHARMACY,22-240 MIDPARK WAY SE,CALGARY,Alberta,-114.0639206,50.9137558
HOPE MEDICARE PHARMACY,3705 26 AVE NE,CALGARY,Alberta,-113.9812306,51.0774397
ICURAE PHARMACY,1502 11 AVE SW,CALGARY,Alberta,-114.0947744,51.043271
IMAGINE HEALTH PHARMACY - CALGARY,4120-15 SUNPARK PLAZA SE,CALGARY,Alberta,-114.0588462,50.9053095
IMAGINE HEALTH PHARMACY-DOWNTOWN CALGARY,100-300 6 AVE SE,CALGARY,Alberta,-114.0626256,51.0476797
JAKA DRUG MART,5150 47 LEGACY VIEW SE,CALGARY,Alberta,-114.0123346,50.8549074
KENRON COMPOUNDING PHARMACY,110-1011 GLENMORE TR SW,CALGARY,Alberta,-114.0854745,50.993662
KENRON COMPOUNDING PHARMACY FOOTHILLS,100-1620 29 ST NW,CALGARY,Alberta,-114.128647,51.0676789
KINSOL PHARMACY,803 1 AVE NE,CALGARY,Alberta,-114.0453316,51.0530565
LANDMARK PHARMACY,283-1623 CENTRE ST NW,CALGARY,Alberta,-114.0635812,51.0666394
LIVE LIFE PHARMACY,7A-7640 FAIRMOUNT DR SE,CALGARY,Alberta,-114.0592519,50.9854249
LOBLAW PHARMACY #1543,100 COUNTRY VILLAGE RD NE,CALGARY,Alberta,-114.0662761,51.160755
LOBLAW PHARMACY #1545,7020 4 ST NW,CALGARY,Alberta,-114.0692286,51.1157505
LOBLAW PHARMACY #1546,4700 130 AVE SE,CALGARY,Alberta,-113.9668042,50.9334974
LOBLAW PHARMACY #1574,PHARMACY DEPARTMENT,CALGARY,Alberta,-114.030861,51.093117
LOBLAW PHARMACY #1575,5251 COUNTRY HILLS BLVD NW,CALGARY,Alberta,-114.1613867,51.13649
LOBLAW PHARMACY #1576,3575 20 AVE NE,CALGARY,Alberta,-113.9827239,51.0710594
LOBLAW PHARMACY #1577,5858 SIGNAL HILL CTR SW,CALGARY,Alberta,-114.1678851,51.0211828
LOBLAW PHARMACY #1578,100-15915 MACLEOD TR SE,CALGARY,Alberta,-114.0675087,50.9096114
LOBLAW PHARMACY #1586,19655 SETON WAY SE,CALGARY,Alberta,-113.9593931,50.8746568
LOBLAW PHARMACY #1590,240-540 3 ST SE,CALGARY,Alberta,-114.0544819,51.0474237
LOBLAW PHARMACY #4619,10 SAGE HILL PLAZA NW,CALGARY,Alberta,-114.1516704,51.1699179
LONDON DRUGS #30,8330 MACLEOD TR SE,CALGARY,Alberta,-114.0700224,50.9785554
LONDON DRUGS #31,3545 32 AVE NE,CALGARY,Alberta,-113.9853222,51.0808781
LONDON DRUGS #32,300-5255 RICHMOND RD SW,CALGARY,Alberta,-114.1616607,51.0166791
LONDON DRUGS #33,3630 BRENTWOOD RD NW,CALGARY,Alberta,-114.1248475,51.0853431
LONDON DRUGS #40,400-8120 BEDDINGTON BLVD NW,CALGARY,Alberta,-114.0745658,51.1269667
LONDON DRUGS #64,4701 130 AVE SE,CALGARY,Alberta,-113.96749,50.9314347
LONDON DRUGS #68,500-8888 COUNTRY HILLS BLVD NW,CALGARY,Alberta,-114.0696085,51.1511321
LUKES DRUG MART,112 4 STREET NE,CALGARY,Alberta,-114.051337,51.0530959
LUKES DRUG MART-KILLARNEY,3407 26 AVE SW,CALGARY,Alberta,-114.1361046,51.0296909
LYNNWOOD DRUGS,6618 20A ST SE,CALGARY,Alberta,-114.0096754,50.9938187
MACLEOD GUARDIAN PHARMACY,1010 MACLEOD TR SE,CALGARY,Alberta,-114.0581399,51.0428396
MACLEOD TRAIL PHARMACY,103-5720 MACLEOD TR,CALGARY,Alberta,-114.0706251,51.0031184
MADIGAN PHARMACY,68-6060 MEMORIAL DR NE,CALGARY,Alberta,-113.942323,51.052787
MARKET MALL PHARMACY & COMPOUNDING,100-4935 40 AVE NW,CALGARY,Alberta,-114.1582335,51.0875933
MARTINDALE PHARMACY,101-126 MARTINDALE DR NE,CALGARY,Alberta,-113.9526775,51.1141719
MARTINDALE PHARMACY #2,316-7171 80 AVE NE,CALGARY,Alberta,-113.9322236,51.1244657
MARTINDALE PHARMACY #3,1410-6004 COUNTRY HILLS,CALGARY,Alberta,-113.9516212,51.1548668
MAXCARE PHARMACY,2-7005 18 ST SE,CALGARY,Alberta,-114.0160512,50.9906362
MEADOWS COMMUNITY PHARMACY,1041 CANYON MEADOWS DR SW,CALGARY,Alberta,-114.083468,50.9387289
MEADOWS MILE PHARMACY,110-8500 BLACKFOOT TR SE,CALGARY,Alberta,-114.0465716,50.9765105
MEDICARE PHARMACY,103-70 COUNTRY HILLS LANDNG NW,CALGARY,Alberta,-114.072897,51.141679
MEDICARE PLUS PHARMACY,7-6208 RUNDLEHORN DR NE,CALGARY,Alberta,-113.9439135,51.0715886
MEDICINE SHOPPE PHARMACY 111,114-8180 MACLEOD TR SE,CALGARY,Alberta,-114.0704386,50.9818488
MEDICINE SHOPPE PHARMACY 126,12-5440 4 ST NW,CALGARY,Alberta,-114.0709312,51.0994228
MEDICINE SHOPPE PHARMACY 158,312-401 9 AVE SW,CALGARY,Alberta,-114.0698895,51.0444388
MEDICINE SHOPPE PHARMACY 171,100-2675 36 ST NE,CALGARY,Alberta,-113.9825158,51.0768764
MEDICINE SHOPPE PHARMACY 178,105-4411 16 AVE NW,CALGARY,Alberta,-114.1588272,51.0680957
MEDICINE SHOPPE PHARMACY 181,11-555 HAWKWOOD BLVD NW,CALGARY,Alberta,-114.1693413,51.1241114
MEDICINE SHOPPE PHARMACY 194,2303 4 ST SW,CALGARY,Alberta,-114.0719307,51.0321985
MEDICINE SHOPPE PHARMACY 199,4-7930 BOWNESS RD NW,CALGARY,Alberta,-114.20143,51.0894982
MEDICINE SHOPPE PHARMACY 242,111-31 SUNPARK PLAZA SE,CALGARY,Alberta,-114.0586473,50.9025624
MEDICINE SHOPPE PHARMACY 260,11-600 CROWFOOT CRES NW,CALGARY,Alberta,-114.2040357,51.1295946
MEDICINE SHOPPE PHARMACY 314,3105-230 EVERSYDE BLVD SW,CALGARY,Alberta,-114.1100192,50.9093583
MEDICINE SHOPPE PHARMACY 389,1152 137 AVE SE,CALGARY,Alberta,-114.0281546,50.9282261
MEDICINE SHOPPE PHARMACY 398,70-1935 37 ST SW,CALGARY,Alberta,-114.1418486,51.0366269
MEDICURE PLUS PHARMACY,928-5075 FALCONRIDGE BLVD NE,CALGARY,Alberta,-113.9611346,51.0974334
MEDILINK REMEDY'S RX PHARMACY,120-9825 FAIRMOUNT DR SE,CALGARY,Alberta,-114.0591975,50.9644157
MEDIMAX PHARMACY,240-520 3 AVE SW,CALGARY,Alberta,-114.0720484,51.0509887
MEDIWELL PHARMACY,106-3840 104 AVE NE,CALGARY,Alberta,-113.9790026,51.147769
MEDVITE PHARMACY,120 40 AVE NW,CALGARY,Alberta,-114.0636924,51.0888927
MELL PHARMACY,771 NORTH MOUNT DR NW,CALGARY,Alberta,-114.095948,51.0824799
MEMORIAL SQUARE REMEDY'S RX,4A-5268 MEMORIAL DR NE,CALGARY,Alberta,-113.9566894,51.0537552
MERIT PHARMACY,11458 BRAESIDE DR SW,CALGARY,Alberta,-114.11667,50.9539051
MIDLAKE PHARMACY,15233 BANNISTER RD SE,CALGARY,Alberta,-114.0675824,50.9161979
MIDTOWN PHARMACY & TRAVEL CLINIC,1110 11 AVE SW,CALGARY,Alberta,-114.0867009,51.0435321
MINT HEALTH + DRUGS: BLUE BOTTLE,148 17 AVE NE,CALGARY,Alberta,-114.0601319,51.0680458
MYHEALTHCARE PHARMACY,101-3223 5 AVE NE,CALGARY,Alberta,-113.9865514,51.056584
MYHEALTHCARE+ PHARMACY,125-4611 BOWNESS RD NW,CALGARY,Alberta,-114.1596437,51.0716634
NEW BRIGHTON REMEDY'S RX PHARMACY & TRAVEL CLINIC,105-151 COPPERPOND BLVD SE,CALGARY,Alberta,-113.9317308,50.9236774
NORTHWEST PHARMACY,110-9 ROYAL VISTA DR NW,CALGARY,Alberta,-114.2075673,51.1507217
NUAID ONE6 PHARMACY,1506 16 AVE NW,CALGARY,Alberta,-114.0958213,51.0670762
NUAID ROYAL VISTA PHARMACY,1122 - 12 ROYAL VISTA WAY NW,CALGARY,Alberta,-114.2059438,51.1527225
OAKRIDGE COMMUNITY PHARMACY REMEDY'S RX,5-3109 PALLISER DR SW,CALGARY,Alberta,-114.130941,50.9702431
ORIAD PHARMACY,555 NORTHMOUNT DR NW,CALGARY,Alberta,-114.0864874,51.0885356
PACIFIC PLACE PHARMASAVE #393,958B-999 36 ST NE,CALGARY,Alberta,-113.984632,51.0614764
PANORAMA HILLS PHARMACY,28 PANATELLA BLVD NW,CALGARY,Alberta,-114.0714735,51.1651184
PARAMOUNT PHARMACY & TRAVEL CLINIC,3101-19605 WALDEN BLVD SE,CALGARY,Alberta,-114.025907,50.8756564
PARKHILL PHARMACY + COMPOUNDING CENTRE,124 42 AVE SW,CALGARY,Alberta,-114.0654009,51.0165898
PENNY + FAUSTA PHARMACY,101-217 19 ST NW,CALGARY,Alberta,-114.105764,51.0527057
"PHARM, DRUGSTORE + MORE",103A-3009 14 ST SW,CALGARY,Alberta,-114.0950312,51.0271804
PHARMACY CARE,3-5147 20 AVE SE,CALGARY,Alberta,-113.9594482,51.0350849
PHARMACY CARE 2,109-3151 27 ST NE,CALGARY,Alberta,-113.9953023,51.0803751
PHARMACY PLUS,5066 68 ST NE,CALGARY,Alberta,-113.9345205,51.0985769
PHARMALIFE PHARMACY,1106 EDMONTON TR NE,CALGARY,Alberta,-114.055208,51.061836
PHARMASAVE HIDDEN VALLEY,311-11 HIDDEN CREEK DR NW,CALGARY,Alberta,-114.105181,51.154921
PHARMASAVE JO'S BELTLINE PHARMACY,1219 11 AVE SW,CALGARY,Alberta,-114.0899898,51.0429057
PHARMASAVE MACLEOD,106-7500 MACLEOD TR SE,CALGARY,Alberta,-114.0702412,50.9866545
PHARMASAVE ON NORTHMOUNT,4501 BRISEBOIS DR NW,CALGARY,Alberta,-114.1289672,51.0932834
PHARMASAVE SIGNATURE DRUG MART #3017,509-1851 SIROCCO DR SW,CALGARY,Alberta,-114.1677959,51.0366208
PHARMASAVE WHITEHORN #3018,BAY 17-4525 52 ST NE,CALGARY,Alberta,-113.9592229,51.0918716
PHARMASELECT PHARMACY,1808 33 ST SE,CALGARY,Alberta,-113.9859029,51.0373911
PHARMEDIC PHARMACY #1,101-4515 MACLEOD TR SW,CALGARY,Alberta,-114.0661113,51.013492
PHARMEDIC PHARMACY #3,6558 4 ST NE,CALGARY,Alberta,-114.0559034,51.1114409
PINERIDGE PHARMACY,7-3250 60 ST NE,CALGARY,Alberta,-113.9463741,51.0812386
PRIMARYMED PHARMACY,148-1402 8 AVE NW,CALGARY,Alberta,-114.0978374,51.059689
QUEEN PHARMACY,32-4604 37 ST SW,CALGARY,Alberta,-114.1401735,51.013013
RADIANCE PHARMACY,100-10201 SOUTHPORT RD SW,CALGARY,Alberta,-114.0736272,50.9639987
RANCHLANDS PHARMACY,4-7750 RANCHVIEW DR NW,CALGARY,Alberta,-114.179371,51.1207172
RENFREW PHARMACY,832 EDMONTON TR NE,CALGARY,Alberta,-114.053906,51.059531
REVIVE PHARMACY,1905 20 AVE NW,CALGARY,Alberta,-114.1049665,51.0703415
REVOLUTION REMEDY'SRX,5959 SIGNAL HILL CENTRE SW,CALGARY,Alberta,-114.1749579,51.0168185
REXALL #7228,300-9650 HARVEST HILLS BLVD NE,CALGARY,Alberta,-114.06826,51.140773
REXALL #7260,10-3301 17 AVE SE,CALGARY,Alberta,-114.0641837,51.0380778
REXALL #7262,101-1032 17 AVE SW,CALGARY,Alberta,-114.084871,51.0377094
REXALL #7264,500-1110 PANATELLA BLVD NW,CALGARY,Alberta,-114.0912671,51.1679698
REXALL #7282,14-11625 ELBOW DR SW,CALGARY,Alberta,-114.085669,50.948789
REXALL #7283,160-11520 24 ST SE,CALGARY,Alberta,-114.0006155,50.9513314
REXALL #7284,116-817 19 ST NE,CALGARY,Alberta,-114.0145719,51.0582389
REXALL #7285,70 HIGH ST SE,CALGARY,Alberta,-113.9605244,50.9146491
REXALL #7287,148-555 STRATHCONA BLVD SW,CALGARY,Alberta,-114.1861226,51.0488558
REXALL #7288,152-1440 52 ST NE,CALGARY,Alberta,-113.956535,51.0624568
REXALL #7289,2050-11300 TUSCANY BLVD NW,CALGARY,Alberta,-114.2486216,51.1247856
REXALL #7292,120-55 CASTLERIDGE BLVD NE,CALGARY,Alberta,-113.962142,51.098529
RICHMOND SQUARE PHARMACY,142-3715 51 ST SW,CALGARY,Alberta,-114.1625934,51.0212623
RIDEAU PHARMACY,1711 4 ST SW,CALGARY,Alberta,-114.0719354,51.0372431
ROYAL CARE DOUGLASDALE PHARMACY,6-20 DOUGLAS WOODS DR SE,CALGARY,Alberta,-114.0018911,50.9432217
ROYAL OAK PHARMACY,228-500 ROYAL OAK DR NW,CALGARY,Alberta,-114.2332545,51.1394101
RUNDLE PHARMACY,11-3735 RUNDLEHORN DR NE,CALGARY,Alberta,-113.980657,51.071087
SAFEWAY PHARMACY #8803,399 36 ST NE,CALGARY,Alberta,-113.9848652,51.0542467
SAFEWAY PHARMACY #8809,1200 37 ST SW,CALGARY,Alberta,-114.1403001,51.0422583
SAFEWAY PHARMACY #8812,813 11 AVE SW,CALGARY,Alberta,-114.0800055,51.042329
SAFEWAY PHARMACY #8816,32 AVE & SHAGANNAPI TR NW,CALGARY,Alberta,-90.4792679,41.4814178
SAFEWAY PHARMACY #8820,524 ELBOW DR SW,CALGARY,Alberta,-114.0726147,51.0302754
SAFEWAY PHARMACY #8823,1818 CENTRE ST NE,CALGARY,Alberta,-114.0611037,51.0681676
SAFEWAY PHARMACY #8824,410 10 ST NW,CALGARY,Alberta,-114.0850784,51.0561028
SAFEWAY PHARMACY #8826,7740 18 ST SE,CALGARY,Alberta,-114.0141747,50.9838948
SAFEWAY PHARMACY #8833,99 CROWFOOT CRES NW,CALGARY,Alberta,-114.2006063,51.125242
SAFEWAY PHARMACY #8835,3550 32 AVE NE,CALGARY,Alberta,-113.9835868,51.0826399
SAFEWAY PHARMACY #8841,11011 BONAVENTURE DR SE,CALGARY,Alberta,-114.0616719,50.952708
SAFEWAY PHARMACY #8842,1600 90 AVE SW,CALGARY,Alberta,-114.0984385,50.9731932
SAFEWAY PHARMACY #8844,100-5005 DALHOUSIE DR NW,CALGARY,Alberta,-114.1622843,51.1065326
SAFEWAY PHARMACY #8847,70 SHAWVILLE BLVD SW,CALGARY,Alberta,-114.0642307,50.9057811
SAFEWAY PHARMACY #8849,8120 BEDDINGTON BLVD NW,CALGARY,Alberta,-114.0736186,51.1272654
SAFEWAY PHARMACY #8852,200 STEWART GREEN SW,CALGARY,Alberta,-114.1677676,51.0144358
SAFEWAY PHARMACY #8903,375 ASPEN GLEN LANDING SW,CALGARY,Alberta,-114.2089604,51.0411548
SAFEWAY PHARMACY #8909,850 SADDLETOWNE CIR NE,CALGARY,Alberta,-113.9454516,51.1236384
SAFEWAY PHARMACY #8912,2425 34 AVE SW,CALGARY,Alberta,-114.1166457,51.0227234
SAFEWAY PHARMACY #8913,1846-1632 14 AVE NW,CALGARY,Alberta,-114.1030334,51.0656788
SAFEWAY PHARMACY #8916,5048 16 AVE NW,CALGARY,Alberta,-114.1661473,51.074898
SAFEWAY PHARMACY #8918,5607 4 ST NW,CALGARY,Alberta,-114.0727318,51.1017356
SAFEWAY PHARMACY #8989,100-4915 130 AVE SE,CALGARY,Alberta,-113.9635709,50.930311
SAFEWAY PHARMACY #8990,3737 37 ST SW,CALGARY,Alberta,-114.1421509,51.0207701
SAGE MEADOWS PHARMACY,240-2971 136 AVE NW,CALGARY,Alberta,-114.1318943,51.1752334
SAGE PLUS CLINICAL PHARMACY,860 13 ST SE,CALGARY,Alberta,-114.0311774,51.0403215
SANDSTONE PHARMACIES ENHANCED CARE SOLUTIONS,105/107-4405 9 ST SE,CALGARY,Alberta,-114.0414061,51.014302
SANDSTONE PHARMACIES FIFTH AVENUE,222-425 1 ST SW,CALGARY,Alberta,-114.06573,51.0492537
SANDSTONE PHARMACIES GLENMORE LANDING,167D-1600 90 AVE SW,CALGARY,Alberta,-114.0984385,50.9731932
SANDSTONE PHARMACIES MCKENZIE LAKE,16630 MCKENZIE LAKE BLVD SE,CALGARY,Alberta,-113.9896724,50.9035041
SANDSTONE PHARMACIES SIMONS VALLEY,6213 CENTRE ST N,CALGARY,Alberta,-114.063367,51.107744
SANDSTONE PHARMACIES SPRAGUE,727 7 AVE SW,CALGARY,Alberta,-114.078222,51.0468168
SANDSTONE PHARMACIES-DOVER,4-3525 26 AVE SE,CALGARY,Alberta,-113.9801783,51.0305308
SAVANNA MARKET COMMUNITY RX PHARMACY,206-9036 46 ST NE,CALGARY,Alberta,-113.9654514,51.1342059
SAVE-ON-FOODS PHARMACY #6604,225 PANTELLA HILL NW,CALGARY,Alberta,-114.0887083,51.167155
SAVE-ON-FOODS PHARMACY #6606,155 WALDEN GATE SE,CALGARY,Alberta,-114.0386221,50.8749601
SAVE-ON-FOODS PHARMACY #6629,40 HUNTERHORN DR NE,CALGARY,Alberta,-114.0539327,51.1125936
SAVE-ON-FOODS PHARMACY #6631,420 NA'A PLAZA SW,CALGARY,Alberta,-114.1939435,51.0783787
SAVE-ON-FOODS PHARMACY #6632,130-19489 SETON CRES SE,CALGARY,Alberta,-113.9589589,50.8812107
SAVE-ON-FOODS PHARMACY #6633,70-3915 51 ST SW,CALGARY,Alberta,-114.1626645,51.019901
SAVE-ON-FOODS PHARMACY #6634,8855 MACLEOD TR SW,CALGARY,Alberta,-114.0724454,50.9744259
SAVE-ON-FOODS PHARMACY #6636,300-1440 52 ST NE,CALGARY,Alberta,-113.9569682,51.0643941
SAVE-ON-FOODS PHARMACY #6647,4163 UNIVERSITY AVE NW,CALGARY,Alberta,-114.1474982,51.0778292
SETON REMEDY'S RX PHARMACY,117-3815 FRONT ST SE,CALGARY,Alberta,-113.954358,50.880337
SHAWNESSY PHARMACY,138-70 SHAWVILLE BLVD SE,CALGARY,Alberta,-114.0667174,50.9061557
SHOPPERS DRUG MART #2305,11700 SARCEE TR NW,CALGARY,Alberta,-114.1604827,51.1575815
SHOPPERS DRUG MART #2326,115-1410 1 ST SE,CALGARY,Alberta,-114.0606426,51.0387943
SHOPPERS DRUG MART #2335,126-40 SUNPARK PLAZA SE,CALGARY,Alberta,-114.0574207,50.9021324
SHOPPERS DRUG MART #2353,110-620 MCKENZIE TOWNE DR SE,CALGARY,Alberta,-113.95348,50.9124077
SHOPPERS DRUG MART #2355,28 CROWFOOT TERR NW,CALGARY,Alberta,-114.1982603,51.1274041
SHOPPERS DRUG MART #2356,830-19369 SHERIFF KING ST SW,CALGARY,Alberta,-114.07232,50.878755
SHOPPERS DRUG MART #2361,2412 4 ST SW,CALGARY,Alberta,-114.0710026,51.0312438
SHOPPERS DRUG MART #2366,106-19489 SETON CRES. SE,CALGARY,Alberta,-113.958222,50.880147
SHOPPERS DRUG MART #2369,5004-2060 SYMONS VALLEY,CALGARY,Alberta,-114.1098839,51.1741678
SHOPPERS DRUG MART #2371,610-7 MAHOGANY PLAZA SE,CALGARY,Alberta,-113.9431697,50.8992984
SHOPPERS DRUG MART #2375,700-151 WALDEN GATE SE,CALGARY,Alberta,-114.0381729,50.8760669
SHOPPERS DRUG MART #2383,6449 CROWCHILD TR SW,CALGARY,Alberta,-114.1189707,50.996528
SHOPPERS DRUG MART #2384,2555 WOODVIEW DR SW,CALGARY,Alberta,-114.1213524,50.9409499
SHOPPERS DRUG MART #2387,2067 33 AVE SW,CALGARY,Alberta,-114.1092693,51.0238617
SHOPPERS DRUG MART #2390,55-1610 37 ST SW,CALGARY,Alberta,-114.1398848,51.0396532
SHOPPERS DRUG MART #2391,8756 COUNTRY HILLS BLVD NW,CALGARY,Alberta,-114.2117953,51.149792
SHOPPERS DRUG MART #2393,100-317 7 AVE SW,CALGARY,Alberta,-114.0632989,51.046772
SHOPPERS DRUG MART #2399,204-8338 18 ST SE,CALGARY,Alberta,-114.0133884,50.9782341
SHOPPERS DRUG MART #2403,101-600 SADDLETOWNE CIR NE,CALGARY,Alberta,-113.9451623,51.1259027
SHOPPERS DRUG MART #2413,100-2250 162 AVE SW,CALGARY,Alberta,-114.1096921,50.9079605
SHOPPERS DRUG MART #2416,20-12192 SYMONS VALLEY RD NW,CALGARY,Alberta,-114.125331,51.16285
SHOPPERS DRUG MART #2436,4000-873 85 ST SW,CALGARY,Alberta,-114.2120479,51.0599142
SHOPPERS DRUG MART #2449,210 ASPEN GLEN LANDNG SW,CALGARY,Alberta,-114.2055983,51.038864
SHOPPERS DRUG MART #305,5628 4 ST NW,CALGARY,Alberta,-114.0706147,51.1022411
SHOPPERS DRUG MART #306,1919B SOUTHLAND DR SW,CALGARY,Alberta,-114.1052556,50.9607187
SHOPPERS DRUG MART #307,755 LAKE BONAVISTA DR SE,CALGARY,Alberta,-114.047266,50.9423826
SHOPPERS DRUG MART #309,700-5111 NORTHLAND DR NW,CALGARY,Alberta,-114.1430411,51.0976593
SHOPPERS DRUG MART #311,100-815 17 AVE SW,CALGARY,Alberta,-114.0798034,51.0376093
SHOPPERS DRUG MART #314,5-3012 17 AVE SE,CALGARY,Alberta,-114.0146403,51.0375104
SHOPPERS DRUG MART #321,216 STEWART GREEN SW,CALGARY,Alberta,-114.1684798,51.0142465
SHOPPERS DRUG MART #325,198-8060 SILVER SPRINGS BLVD,CALGARY,Alberta,-114.2049521,51.116418
SHOPPERS DRUG MART #329,50-1221 CANYON MEADOWS DR SE,CALGARY,Alberta,-114.0298264,50.9297243
SHOPPERS DRUG MART #345,3939 17 AVE SW,CALGARY,Alberta,-114.1438913,51.0371114
SHOPPERS DRUG MART #347,11-200 52 ST NE,CALGARY,Alberta,-113.9583376,51.0746585
SHOPPERS DRUG MART #349,7606 ELBOW DRIVE SW,CALGARY,Alberta,-114.0824642,50.9857558
SHOPPERS DRUG MART #350,5500 FALSBRIDGE DR NE,CALGARY,Alberta,-113.9556428,51.0978507
SHOPPERS DRUG MART #353,1000-150 MILLRISE BLVD SW,CALGARY,Alberta,-114.0713597,50.9143655
SHOPPERS DRUG MART #354,1231-3800 MEMORIAL DR NE,CALGARY,Alberta,-113.979022,51.0553877
SHOPPERS DRUG MART #355,1790-1632 14 AVE NW,CALGARY,Alberta,-114.101645,51.066141
SHOPPERS DRUG MART #356,3625 SHAGANAPPI TRAIL NW,CALGARY,Alberta,-114.154918,51.084709
SHOPPERS DRUG MART #358,24-6455 MACLEOD TR S,CALGARY,Alberta,-114.073277,50.9989576
SHOPPERS DRUG MART #359,135-2525 36 ST NE,CALGARY,Alberta,-113.9848297,51.0744528
SHOPPERS DRUG MART #361,7740 18 ST SE,CALGARY,Alberta,-114.0141747,50.9838948
SHOPPERS DRUG MART #373,725-500 COUNTRY HILLS BLVD NE,CALGARY,Alberta,-114.0552529,51.1545386
SHOPPERS DRUG MART #376,300-85 SHAWVILLE BLVD SE,CALGARY,Alberta,-114.0635758,50.9014883
SHOPPERS DRUG MART #384,100-1323 CENTRE ST NW,CALGARY,Alberta,-114.063047,51.064073
SHOPPERS DRUG MART #385,1436 KENSINGTON RD NW,CALGARY,Alberta,-114.0937121,51.0527932
SHOPPERS DRUG MART 2380,231 SAGE VALLEY COMMON NW,CALGARY,Alberta,-114.1595427,51.1817402
SIROCCO REMEDY'S RX PHARMACY,220-1919 SIROCCO DR SW,CALGARY,Alberta,-114.1667385,51.0357877
SKYVIEW IDA PHARMACY,2104-55 SKYVIEW RANCH RD NE,CALGARY,Alberta,-113.9630304,51.1649653
SLOANE GUARDIAN PHARMACY,280-5920 1A ST SW,CALGARY,Alberta,-114.0668113,51.0003269
SOBEYS PHARMACY #1110,2020-11300 TUSCANY BLVD NW,CALGARY,Alberta,-114.2472082,51.1238365
SOBEYS PHARMACY #1117,100-2335 162 AVE SW,CALGARY,Alberta,-114.1136049,50.9053212
SOBEYS PHARMACY #1129,125-8888 COUNTRY HILLS BLVD NW,CALGARY,Alberta,-114.218,51.153963
SOBEYS PHARMACY #1139,200-500 COUNTRY HILLS BLVD NE,CALGARY,Alberta,-114.0552529,51.1545386
SOBEYS PHARMACY #1145,2000-150 MILLRISE BLVD SW,CALGARY,Alberta,-114.07136,50.914366
SOBEYS PHARMACY #5020,3000-356 CRANSTON RD SE,CALGARY,Alberta,-113.9774049,50.8801728
SOBEYS PHARMACY #5028,704-19369 SHERIFF KING ST SW,CALGARY,Alberta,-114.0723206,50.8787559
SOBEYS PHARMACY #5191,700-8 NOLAN HILLS BLVD NW,CALGARY,Alberta,-114.15552,51.17253
SOBEYS PHARMACY #5386,1200-7 MAHOGANY PLAZA SE,CALGARY,Alberta,-113.9415318,50.8977995
SOUTH TRAIL PHARMACY,78-4307 130 AVE SE,CALGARY,Alberta,-113.9712208,50.9298757
SOUTHPORT PHARMACY,106-10333 SOUTHPORT RD SW,CALGARY,Alberta,-114.0729444,50.9629889
SRX PHARMACY,260-4525 MONTEREY AVE NW,CALGARY,Alberta,-114.1606446,51.0693671
STAMPEDE PHARMACY,19-3616 52 AVE NW,CALGARY,Alberta,-114.1400454,51.1014362
SUNRIDGE PHARMACY,93-3131 27 ST NE,CALGARY,Alberta,-113.9957067,51.0798251
SUPER M DRUGS (2018),216 CENTRE ST SE,CALGARY,Alberta,-114.062417,51.0506368
TARADALE PHARMACY,525-6520 FALCONRIDGE DR NE,CALGARY,Alberta,-113.9462684,51.0997061
TEMPLE MEDICAL CLINIC PHARMACY,108-5401 TEMPLE DR NE,CALGARY,Alberta,-113.9568996,51.0849476
THE CORNER DRUG STORE INC,602 8 AVE SE,CALGARY,Alberta,-114.0505246,51.0453281
TOWER DRUGS,137-131 9 AVE SW,CALGARY,Alberta,-114.0650556,51.044287
UNITED PHARMACY NO. 3,2790 32 AVE NE,CALGARY,Alberta,-113.9952148,51.0818545
UNIVERSAL HEALTH PHARMACY #1,150-630 REDSTONE DR NE,CALGARY,Alberta,-113.9635055,51.1685364
UNIVERSAL HEALTH PHARMACY #10,113-8555 SCURFIELD DR NW,CALGARY,Alberta,-114.2116599,51.1203869
UNIVERSAL HEALTH PHARMACY #11,80-10233 ELBOW DR SW,CALGARY,Alberta,-114.08581,50.961813
UNIVERSAL HEALTH PHARMACY #3,250-12024 SARCEE TR NW,CALGARY,Alberta,-114.1621121,51.1610972
UNIVERSAL HEALTH PHARMACY #7,5-1704 61 ST SE,CALGARY,Alberta,-113.9422005,51.0385715
UNIVERSAL HEALTH PHARMACY #8 CASTLERIDGE,4-12 CASTLERIDGE DR NE,CALGARY,Alberta,-113.9501876,51.1073898
UNIVERSAL HEALTH PHARMACY #9 NORTHLAND,108B-3604 52 AVE NW,CALGARY,Alberta,-114.1390655,51.1017374
UNIVERSAL HEALTH RANCHLANDS PHARMACY #4,137-1829 RANCHLANDS BLVD NW,CALGARY,Alberta,-114.1974946,51.123086
UNIVERSAL PHARMACY,113-5271 MEMORIAL DR SE,CALGARY,Alberta,-113.9562271,51.0529146
VALLEY RIDGE PHARMACY,300-11245 VALLEY RIDGE DR NW,CALGARY,Alberta,-114.248069,51.0914967
VARSITY PHARMACY,291 MACEWAN STUDENT CENTRE,CALGARY,Alberta,-114.131822,51.0783524
VIET HOA PHARMACY LTD,102-1817 48 ST SE,CALGARY,Alberta,-113.9647122,51.0370573
VILLAGE SQUARE PHARMACY,107 - 2640 52 ST NE,CALGARY,Alberta,-113.9560488,51.0753007
VISTA HEIGHTS PHARMACY,110-2066 18 AVE NE,CALGARY,Alberta,-114.0135156,51.0689105
VISTA PHARMACY & TRAVEL CLINIC,130A-920 36 ST NE,CALGARY,Alberta,-113.9807947,51.0609269
WALDEN MEDICAL PHARMACY,110-19606 WALDEN BLVD SE,CALGARY,Alberta,-114.0255212,50.8751761
WAL-MART PHARMACY #1089,7979 11 ST SE,CALGARY,Alberta,-114.0459253,50.9841428
WAL-MART PHARMACY #1097,35 SAGE HILL GATE NW,CALGARY,Alberta,-114.1422114,51.1698212
WAL-MART PHARMACY #1136,255 EAST HILLS BLVD SE,CALGARY,Alberta,-113.9111464,51.0386955
WAL-MART PHARMACY #3009,WESTBROOK PLAZA,CALGARY,Alberta,-114.140046,51.0422635
WAL-MART PHARMACY #3010,MACLEOD MALL SHOPPING CENTRE,CALGARY,Alberta,-114.0697391,50.9691745
WAL-MART PHARMACY #3011,5005 NORTHLAND DR NW,CALGARY,Alberta,-114.1438554,51.0969696
WAL-MART PHARMACY #3012,MARLBOROUGH MALL,CALGARY,Alberta,-113.9784765,51.0555756
WAL-MART PHARMACY #3013,1110 57 AVE NE,CALGARY,Alberta,-114.0378888,51.1076912
WAL-MART PHARMACY #3151,100-310 SHAWVILLE BLVD SE,CALGARY,Alberta,-114.0616403,50.9008149
WAL-MART PHARMACY #3650,4705 130 AVE SE,CALGARY,Alberta,-113.966538,50.9292398
WAL-MART PHARMACY #5726,200-8888 COUNTRY HILLS BLVD NW,CALGARY,Alberta,-114.218,51.153963
WELLNESS PHARMACY,107-4625 VARSITY DR NW,CALGARY,Alberta,-114.1531926,51.0913762
WEST END PHARMACY,130-1111 6 AVE SW,CALGARY,Alberta,-114.086664,51.0479508
WEST POINTE PHARMACY,124-4850 WESTWINDS DR NE,CALGARY,Alberta,-113.9676966,51.1087799
WESTWINDS PHARMACY,1150-4818 WESTWINDS DR NE,CALGARY,Alberta,-113.9654253,51.1011007
WHITEHORN PHARMACY,3-135 WHITEFIELD DR NE,CALGARY,Alberta,-113.980658,51.087906
WHITEHORN REMEDY'S RX,1-4440 44 AVE NE,CALGARY,Alberta,-113.9664724,51.0928063
WYCKHAM PHARMACY,Z004 WYCKHAM HOUSE,CALGARY,Alberta,-114.1329808,51.0137686
ZINOHA PHARMACY & TRAVEL HEALTH SERVICES,OAK BAY PLAZA,CALGARY,Alberta,-114.1198478,50.9716421
DRUGSTORE PHARMACY #1547,7005 48 AVE,CAMROSE,Alberta,-112.8640769,53.0160909
PHARMASAVE #390,1010-6708 48 AVE,CAMROSE,Alberta,-112.8575938,53.0185389
RX DRUG MART #2022,4911 50 ST,CAMROSE,Alberta,-112.824653,53.020926
RX DRUG MART #2023,1-6601 48 AVE,CAMROSE,Alberta,-112.8560146,53.0158515
SAFEWAY PHARMACY #8883,200 CORNERSTONE,CAMROSE,Alberta,-112.8594375,53.0198111
SAVE-ON-FOODS PHARMACY #6618,4820 66 ST,CAMROSE,Alberta,-112.8556998,53.0198252
WAL-MART PHARMACY #3181,400-6800 48 AVE,CAMROSE,Alberta,-112.8641193,53.0201594
GOURLAY'S CLINIC PHARMACY,120-1151 SIDNEY ST,CANMORE,Alberta,-115.3488619,51.0912963
GRASSROOTS PHARMACY,103A-1205 BOW VALLEY TR,CANMORE,Alberta,-115.3508799,51.0916135
REXALL #7269,901 8 ST,CANMORE,Alberta,-115.3635726,51.0889485
SAFEWAY PHARMACY #8919,1200 RAILWAY AVE,CANMORE,Alberta,-115.3562512,51.0935512
SAVE-ON-FOODS PHARMACY #6635 - CANMORE,2-950 RAILWAY AVE,CANMORE,Alberta,-115.3590296,51.0934446
SHOPPERS DRUG MART #2332,933 RAILWAY AVE,CANMORE,Alberta,-115.3558264,51.0904889
THREE SISTERS PHARMACY,104-75 DYRGAS GATE,CANMORE,Alberta,-115.3220644,51.0554471
CARDSTON REMEDY'S RX PHARMACY,321 MAIN ST,CARDSTON,Alberta,-113.302114,49.1982957
CARDSTON VALUE DRUG MART,237 MAIN ST,CARDSTON,Alberta,-113.302226,49.1997758
DRUGSTORE PHARMACY #9024,120 2 ST E,CARDSTON,Alberta,-113.2961177,49.201808
PHARMASAVE #358,71 2 AVE W,CARDSTON,Alberta,-113.3037385,49.2008779
CAROLINE COMMUNITY PHARMACY,5103 50 AVE,CAROLINE,Alberta,-114.7421353,52.0934289
CASTOR VALUE DRUG MART  ,5106 50 AVE,CASTOR,Alberta,-111.904101,52.218181
CHESTERMERE REMEDY'S RX,106B-300 MERGANSER DR,CHESTERMERE,Alberta,-113.8401729,51.0375926
LOBLAW PHARMACY #4910,301-100 RAINBOW RD,CHESTERMERE,Alberta,-113.8398762,51.0251376
SAFEWAY PHARMACY #8991,100-135 CHESTERMERE STN WAY,CHESTERMERE,Alberta,-113.826044,51.051155
SHOPPERS DRUG MART #2308,300-196 CHESTERMERE STN WAY,CHESTERMERE,Alberta,-113.827998,51.048128
CLARESHOLM PHARMACY,4921 1 ST W,CLARESHOLM,Alberta,-113.5823368,50.0259278
PHARMASAVE CLIVE ,5108 50 ST,CLIVE,Alberta,-113.4476085,52.4780366
COALDALE PHARMASAVE ,1910 20 AVE,COALDALE,Alberta,-112.6217068,49.727868
GOOD HEALTH DISPENSARY ,1917 17 ST,COALDALE,Alberta,-112.6176991,49.7277936
COALHURST IDA PHARMACY ,5209 6 ST,COALHURST,Alberta,-112.925045,49.7481782
COCHRANE COMPOUNDING PHARMACY AND TRAVEL CLINIC,5-118 1 AVE W,COCHRANE,Alberta,-114.4671844,51.1903734
FIRESIDE PHARMACY,5102-50 FIRESIDE GATE,COCHRANE,Alberta,-114.4728311,51.1591235
LOBLAW PHARMACY #4971,210 5 AVE W,COCHRANE,Alberta,-114.4755186,51.1876704
SAFEWAY PHARMACY #8914,304 5 AVE W,COCHRANE,Alberta,-114.4759272,51.185429
SAVE-ON-FOODS PHARMACY #6637 - COCHRANE,65 BOW ST,COCHRANE,Alberta,-114.4665602,51.1869303
SHOPPERS DRUG MART #2420,100-120 5 AVE W,COCHRANE,Alberta,-114.4744956,51.1904959
SUNSET RIDGE PHARMACY,9117-101 SUNSET DR,COCHRANE,Alberta,-114.4713227,51.2127611
TWO PHARMACY,105-100 GRANDE BLVD W,COCHRANE,Alberta,-114.4743024,51.185573
WAL-MART PHARMACY #1135,15 QUARRY ST W,COCHRANE,Alberta,-114.4712645,51.1864655
COMMUNITY DRUG MART #2028,4-901 10 ST,COLD LAKE,Alberta,-110.1737199,54.4638
COMMUNITY DRUG MART #2029,206-6503 51 ST,COLD LAKE,Alberta,-110.2039721,54.4319079
FORBES PHARMACY COLD LAKE,101-5016 50 AVE,COLD LAKE,Alberta,-110.2069479,54.4135304
GLACIER GATE PHARMACY,101-2504 GLACIER GATE,COLD LAKE,Alberta,-110.2001084,54.4664094
SHOPPERS DRUG MART #2310,6203A 51 ST,COLD LAKE,Alberta,-110.2054809,54.4294683
WAL-MART PHARMACY #3640,4702 43 AVE,COLD LAKE,Alberta,-110.2013629,54.4085219
COLEMAN REMEDY'S RX ,8335 20 AVE,COLEMAN,Alberta,-114.4933296,49.636586
CONSORT PHARMACY ,4906 50 ST,CONSORT,Alberta,-110.775804,52.007388
CORONATION VALUE DRUG MART ,4926 VICTORIA AVE,CORONATION,Alberta,-111.4490844,52.0922346
ROCKYVIEW PHARMACY,1106 RAILWAY ST,CROSSFIELD,Alberta,-114.0287889,51.4269762
DAYSLAND PHARMACY,5023 50 ST,DAYSLAND,Alberta,-112.2601653,52.8645288
PHARMASAVE DELBURNE  ,2102 20 ST,DELBURNE,Alberta,-113.2327869,52.1977251
DEVON CENTRAL PHARMACY,1-102 ERIE ST S,DEVON,Alberta,-113.7273407,53.351957
LOBLAW PHARMACY #4903,16 SUPERIOR ST,DEVON,Alberta,-113.7335109,53.3651818
REXALL #7513,101-180 MIQUELON AVE,DEVON,Alberta,-113.729904,53.3527165
SHOPPERS DRUG MART #2331,100-106 ERIE ST S,DEVON,Alberta,-113.7280347,53.3525928
DIDSBURY PHARMASAVE #373,1918 20 ST,DIDSBURY,Alberta,-114.1376082,51.6607804
DIDSBURY VALUE DRUG MART,1710 20 ST,DIDSBURY,Alberta,-114.1377444,51.6586315
UNIVERSAL HEALTH PHARMACY #12 DIDSBURY,106-2034 19 AVE,DIDSBURY,Alberta,-114.1393131,51.6602469
DRAYTON VALLEY VALUE DRUG MART,5014 56 AVE,DRAYTON VALLEY,Alberta,-114.978098,53.2283764
LOBLAW PHARMACY #4611,5212 50 ST,DRAYTON VALLEY,Alberta,-114.978184,53.2249897
MACMILLAN'S PHARMACY,108-4930 55 AVE,DRAYTON VALLEY,Alberta,-114.9747604,53.2284933
MALONE PHARMACY,4955 41 AVE,DRAYTON VALLEY,Alberta,-114.9730908,53.2123661
REXALL #7245,113-4341 50 ST,DRAYTON VALLEY,Alberta,-114.975915,53.215573
WAL-MART PHARMACY #1008,5217 POWER CENTRE BLVD,DRAYTON VALLEY,Alberta,-114.992836,53.2253974
WINTER'S PHARMACY,1-5004 50 AVE,DRAYTON VALLEY,Alberta,-114.9775189,53.2218117
ANDERSON DRUG BY FRESON BROS DRUMHELLER,101 6 AVE SE,DRUMHELLER,Alberta,-112.7079738,51.4595086
DRUGSTORE PHARMACY #9043,1252 HWY 9 S,DRUMHELLER,Alberta,-112.6994884,51.4493039
RIVERSIDE VALUE DRUG MART,167 CENTRE ST,DRUMHELLER,Alberta,-112.7081155,51.4658373
SHOPPERS DRUG MART #2346,41 RAILWAY AVE W,DRUMHELLER,Alberta,-112.7080885,51.4621234
WAL-MART PHARMACY #1028,1801 SOUTH RAILWAY AVE,DRUMHELLER,Alberta,-112.6882942,51.4500289
DUCHESS DRUG MART ,5-108 CENTRE ST,DUCHESS,Alberta,-111.9057834,50.7321192
1230 PHARMACY & TRAVEL CLINIC,102-1230 91 ST SW,EDMONTON,Alberta,-113.476204,53.4222679
ACCESS PHARMACY,6255 ANDREWS LOOP SW,EDMONTON,Alberta,-113.5900156,53.4270346
ALBERTA AVE MEDX DRUGS,9004 118 AVE NW,EDMONTON,Alberta,-113.4800728,53.5705227
ALBERTA AVENUE PHARMACY,9448 118 AVE NW,EDMONTON,Alberta,-113.487061,53.5706163
ALL CARE PHARMACY,5016 106 AVE NW,EDMONTON,Alberta,-113.4198558,53.5517656
ALLIN BUILDING PHARMACY (1975) LTD.,10155 120 ST NW,EDMONTON,Alberta,-113.528138,53.5427425
APOLLO CLINICAL PHARMACY,6570 170 AVE NW,EDMONTON,Alberta,-113.4422389,53.6333088
AQUA RX PHARMACY,10608 105 AVE NW,EDMONTON,Alberta,-113.5032612,53.548124
ARX PHARMACY & HOMECARE,6730 75 ST NW,EDMONTON,Alberta,-113.4434456,53.5030818
BALSAM PHARMACY,104-10430 61 AVE NW,EDMONTON,Alberta,-113.5000197,53.4984562
BALWIN PHARMACY,17-8103 127 AVE NW,EDMONTON,Alberta,-113.4665114,53.5838911
BEARSPAW FAMILY PHARMACY,1929 105 ST NW,EDMONTON,Alberta,-113.5003323,53.4483484
BEHEALTHY PHARMACY,10120 149 ST NW,EDMONTON,Alberta,-113.5786614,53.5424218
BETTER LIFE HOME MEDICAL,14250 85 AVE,EDMONTON,Alberta,-113.566759,53.5178719
BEVERLY PHARMACY,4243 118 AVE NW,EDMONTON,Alberta,-113.4076182,53.5700729
BEVERLY TOWNE PHARMACY,11730 34 ST NW,EDMONTON,Alberta,-113.395301,53.570031
BLUE QUILL PHARMACY,108-2841 109 ST NW,EDMONTON,Alberta,-113.5091967,53.4597683
BOYLE MCCAULEY PHARMACY & HOME HEALTH CARE,10817 95 ST NW,EDMONTON,Alberta,-113.4840292,53.5551151
BOYLE PHARMACY,10608 97 ST NW,EDMONTON,Alberta,-113.4891436,53.5505246
BOYLE STREET MEDX DRUGS,10306 95 ST NW,EDMONTON,Alberta,-113.4800828,53.5471619
BRINTNELL PHARMACY & TRAVEL CLINIC,3-4303 167 AVE NW,EDMONTON,Alberta,-113.4706237,53.6284192
CALLINGWOOD PHARMACY,6911 172 ST NW,EDMONTON,Alberta,-113.6187378,53.5050991
CANORA PHARMACY,15803 100A AVE NW,EDMONTON,Alberta,-113.5944459,53.5400492
CARERX COMPOUNDING EDMONTON,M5-9509 156 ST NW,EDMONTON,Alberta,-113.5898434,53.5318519
CASTLEDOWNS ARP PHARMACY,122-15277 CASTLEDOWNS RD NW,EDMONTON,Alberta,-113.5156894,53.6131109
CASTLEDOWNS MEDICAL & WELLNESS PHARMACY,15121 121 ST NW,EDMONTON,Alberta,-113.5297935,53.6133629
CENTRAL POINT PHARMACY,10382 105 ST NW,EDMONTON,Alberta,-113.5013092,53.5457431
CENTURY PHARMACY,11031 97 ST,EDMONTON,Alberta,-113.4919831,53.5581246
CHINATOWN IPHARMACY,9662 107A AVE NW,EDMONTON,Alberta,-113.4896291,53.5530721
CITY CENTRE PHARMACY,10264 100 ST,EDMONTON,Alberta,-113.491776,53.545057
CLAREVIEW DRUG MART,14061 VICTORIA TR NW,EDMONTON,Alberta,-113.3849202,53.6033594
CLEARWATER PHARMACY,15345 97 ST NW,EDMONTON,Alberta,-113.490019,53.615021
COLES PHARMACY,168-3210 118 AVE NW,EDMONTON,Alberta,-113.390552,53.571482
COMMUNICARE PHARMACY,11049 127 ST,EDMONTON,Alberta,-113.5408046,53.5587176
COMPLETE CARE PHARMACY,12418 118 AVE NW,EDMONTON,Alberta,-113.5369172,53.5705718
CONNECTCARE MEDICAL CLINIC & PHARMACY MILLWOODS,1756 34 AVE NW,EDMONTON,Alberta,-113.3708973,53.4679045
CO-OP PHARMACY CHAPPELLE,1025 CHAPPELLE BLVD SW,EDMONTON,Alberta,-113.5700458,53.4099533
CO-OP PHARMACY HAWKSTONE LESSARD,18370 LESSARD RD NW,EDMONTON,Alberta,-113.6439229,53.4862202
CO-OP PHARMACY MILLWOODS TOWN CENTER,300-2331 66 STREET NW,EDMONTON,Alberta,-113.4317332,53.4558472
CORNER PHARMACY,10118 156 ST NW,EDMONTON,Alberta,-113.5906177,53.5419622
COSTCO PHARMACY #1112,7259 WINTERBURN RD NW,EDMONTON,Alberta,-113.6853229,53.5096894
COSTCO PHARMACY #154,12450 149 ST,EDMONTON,Alberta,-113.5799217,53.5790106
COSTCO PHARMACY #156,13650 50 ST NW,EDMONTON,Alberta,-113.4169095,53.5960321
COSTCO PHARMACY #258,2616 91 ST,EDMONTON,Alberta,-113.4696883,53.4555473
CROWBOROUGH PHARMACY,111-6055 ANDREWS WAY SW,EDMONTON,Alberta,-113.591467,53.4296838
CURE CARE PHARMACY,11-9104 179 AVE NW,EDMONTON,Alberta,-113.4784225,53.6414898
DD PHARMACY,10706 101 ST NW,EDMONTON,Alberta,-113.4940591,53.55173
DELTON SUPER DRUGS LTD.,12904 82 ST NW,EDMONTON,Alberta,-113.4677829,53.587492
DISPENSARIES (1991) LIMITED,202-14101 West Block Dr Nw,EDMONTON,Alberta,-113.5644935,53.543413
DISPENSARIES (1991) LIMITED,FIRST EDMONTON PL,EDMONTON,Alberta,-113.5045092,53.5405545
DISPENSARIES (1991) LIMITED,CEDARS PROFESSIONAL PARK,EDMONTON,Alberta,-113.4329665,53.4608367
DOAN PHARMACY LTD,10920 107 AVE NW,EDMONTON,Alberta,-113.5098171,53.551619
DOLAR DRUGS 2,13211 132 ST NW,EDMONTON,Alberta,-113.5485154,53.5925179
DOWNTOWN IPHARMACY,10107 107 AVE NW,EDMONTON,Alberta,-113.4941105,53.5512504
DUNLUCE PHARMACY,12118 161 AVE NW,EDMONTON,Alberta,-113.5338129,53.6220305
EASTGATE DRUGS,3804-137 Ave NW,EDMONTON,Alberta,-113.4002187,53.5996401
EASTWOOD PHARMACY,7919 118 AVE NW,EDMONTON,Alberta,-113.4634817,53.5702877
EDGEMONT PHARMACY,20166 LESSARD RD NW,EDMONTON,Alberta,-113.6741568,53.477333
EDGEWATER PHARMACY,8508 Jasper AVE,EDMONTON,Alberta,-113.4712379,53.5555075
EDMONTON DRUGS,111-11010 101 ST NW,EDMONTON,Alberta,-113.4951857,53.5573006
EDMONTON PHARMACY,168-17010 90 AVE NW,EDMONTON,Alberta,-113.6174142,53.5263223
EVANSDALE PHARMACY,8216 144 AVE NW,EDMONTON,Alberta,-113.4683492,53.6072246
EVERYDAY PHARMACY,2704 48 ST,EDMONTON,Alberta,-113.4176216,53.4586305
FAMILY CARE MEDICAL PHARMACY,101-11611 107 AVE NW,EDMONTON,Alberta,-113.521828,53.551216
FAMILY DRUGS,10233 97 ST NW,EDMONTON,Alberta,-113.4860001,53.544827
FRESHCO PHARMACY #4292,2355 17 ST NW,EDMONTON,Alberta,-113.3681989,53.4546081
FRONTLINE PHARMACY,627 CAMERON HEIGHTS DR NW,EDMONTON,Alberta,-113.631238,53.4702434
GALAXY PHARMACY,11254 82 ST NW,EDMONTON,Alberta,-113.4677837,53.5620134
GARNEAU PHARMASAVE,102-11044 82 AVE NW,EDMONTON,Alberta,-113.5173537,53.5184161
GLENBROOK PHARMACY,12718 66 ST NW,EDMONTON,Alberta,-113.443575,53.5855279
GLENGARRY PHARMACY,115-12222 137 AVE NW,EDMONTON,Alberta,-113.5329573,53.6004415
GRANDVIEW PHARMACY,12307 63 AVE NW,EDMONTON,Alberta,-113.542109,53.4999226
HAMPTONS PHARMACY,5603 199 STREET NW,EDMONTON,Alberta,-113.6641128,53.4916175
HAWKSTONE HOME HEALTH CARE PHARMACY,100-18332 LESSARD RD,EDMONTON,Alberta,-113.6423782,53.4862668
HAZELDEAN DRUG MART,9611 66 AVE NW,EDMONTON,Alberta,-113.4772092,53.5026301
HEALTH AID PHARMACY,12918 167 AVE NW,EDMONTON,Alberta,-113.5469358,53.6292143
HEALTH NET PHARMACY,107-6203 28 AVE NW,EDMONTON,Alberta,-113.4289759,53.4582091
HEALTH PLUS IDA PHARMACY,8132 102 ST NW,EDMONTON,Alberta,-113.4939177,53.5175994
HEALTH PLUS PHARMACY,10746 95 ST NW,EDMONTON,Alberta,-113.4840699,53.5540954
HEALTH PRO PHARMACY,14203 127 ST NW,EDMONTON,Alberta,-113.5407122,53.604723
HEALTH SQUARE PHARMACY,11045 124 ST NW,EDMONTON,Alberta,-113.535412,53.5587076
HEALTHCARE I.D.A. PHARMACY,4416 36 AVE NW,EDMONTON,Alberta,-113.4094771,53.467358
HERITAGE IDA PHARMACY,2136 109 ST NW,EDMONTON,Alberta,-113.5097689,53.453054
HEWES WAY PHARMACY,101-2551 HEWES WAY NW,EDMONTON,Alberta,-113.4254361,53.456776
HOLISTICARE PHARMACY,104-7609 109 ST NW,EDMONTON,Alberta,-113.511535,53.5125941
HOMESTEADER PHARMACY,590 HERMITAGE RD NW,EDMONTON,Alberta,-113.4059912,53.5869777
HOPE PHARMACY,9722 106 AVE NW,EDMONTON,Alberta,-113.4898812,53.550203
HUDSON PHARMACY,14072 127 ST NW,EDMONTON,Alberta,-113.542223,53.6033312
ICARE PHARMACY,12851 97 ST NW,EDMONTON,Alberta,-113.4915229,53.5871718
ICARE PHARMACY WINDERMERE,101-3514 ALLAN DR SW,EDMONTON,Alberta,-113.591027,53.4288779
IDA COMMUNITY PHARMACY,36 EVERGREEN PK NW,EDMONTON,Alberta,-113.3530958,53.6296279
IDA IN GRIESBACH PHARMACY,7-6881 AD ASTRA BLVD NW,EDMONTON,Alberta,-113.515438,53.6067468
IDEAL CARE PHARMACY,12147 82 ST NW,EDMONTON,Alberta,-113.46679,53.576274
IMAGINE HEALTH PHARMACY - EDMONTON,2316 96 ST NW,EDMONTON,Alberta,-113.4761551,53.4527136
INGLEWOOD PHARMACY,11802 124 ST NW,EDMONTON,Alberta,-113.5361522,53.5705541
IPHARMACY,5708 19A AVE NW,EDMONTON,Alberta,-113.428645,53.4510256
J L PHARMACARE PHARMACY,4627 118 AVE NW,EDMONTON,Alberta,-113.4139071,53.57004
JASPER PHARMACY,11217 JASPER AVE NW,EDMONTON,Alberta,-113.5144943,53.5406692
KAI HEALTH (CAPILANO PHARMACY),5818 TERRACE RD NW,EDMONTON,Alberta,-113.4253815,53.5408293
KAI HEALTH (KENSINGTON) PHARMACY,12620A 132 AVE NW,EDMONTON,Alberta,-113.5395245,53.5930434
KAI HEALTH (WESTMOUNT PHARMACY),11035 GROAT RD NW,EDMONTON,Alberta,-113.5506379,53.5586038
KENNEDALE DRUG MART,26-12981 50 ST NW,EDMONTON,Alberta,-113.4174432,53.5891504
KINGSTON PHARMACY,10108 111 AVE NW,EDMONTON,Alberta,-113.494364,53.5590657
LAKEWOOD PHARMACY,1520 LAKEWOOD RD NW,EDMONTON,Alberta,-113.4594673,53.458286
LANSDOWNE PHARMASAVE,101-5124 122 ST NW,EDMONTON,Alberta,-113.5425512,53.4893193
LENDRUM GUARDIAN PHARMACY,5720 111 ST NW,EDMONTON,Alberta,-113.5179584,53.4947767
LIFECARE PHARMACY,1332 WINDERMERE WAY SW,EDMONTON,Alberta,-113.6181636,53.433682
LOBLAW PHARMACY #1502,11541 KINGSWAY AVE,EDMONTON,Alberta,-113.5213244,53.5647041
LOBLAW PHARMACY #1537,11839 26 AVE SW,EDMONTON,Alberta,-113.5370633,53.4080181
LOBLAW PHARMACY #1538,1155 WINDERMERE WAY SW,EDMONTON,Alberta,-113.6176785,53.4372533
LOBLAW PHARMACY #1549,9711 23 AVE NW,EDMONTON,Alberta,-113.480911,53.4521631
LOBLAW PHARMACY #1566,4950 137 AVE,EDMONTON,Alberta,-113.4111336,53.5985008
LOBLAW PHARMACY #1569,4410 17 ST NW,EDMONTON,Alberta,-113.374279,53.4806593
LOBLAW PHARMACY #1570,4821 CALGARY TR NW,EDMONTON,Alberta,-113.4934239,53.4860375
LOBLAW PHARMACY #1572,12350 137 AVE NW,EDMONTON,Alberta,-113.537165,53.6015325
LOBLAW PHARMACY #1573,17303 STONY PLAIN RD NW,EDMONTON,Alberta,-113.6211273,53.5399567
LOBLAW PHARMACY #4019,15411 97 ST NW,EDMONTON,Alberta,-113.4901645,53.6156887
LONDON DRUGS #21,120-9450 137 AVE NW,EDMONTON,Alberta,-113.4881358,53.6008627
LONDON DRUGS #22,14951 STONY PLAIN RD NW,EDMONTON,Alberta,-113.578586,53.5401545
LONDON DRUGS #23,10531 51 AVE NW,EDMONTON,Alberta,-113.5016296,53.4876856
LONDON DRUGS #26,1494-8882 170 ST NW,EDMONTON,Alberta,-113.6263698,53.5235495
LONDON DRUGS #45,11704 104 AVE NW,EDMONTON,Alberta,-113.5235411,53.5475032
LONDON DRUGS #57,9704 19 AVE NW,EDMONTON,Alberta,-113.4812751,53.4485198
LONDONDALE GUARDIAN PHARMACY,7606 144 AVE NW,EDMONTON,Alberta,-113.4585278,53.607474
LYNNWOOD PHARMASAVE,8764 149 ST NW,EDMONTON,Alberta,-113.5785637,53.5208824
MANNING PHARMACY,228 MANNING CROSS NW,EDMONTON,Alberta,-113.423727,53.60024
MARKET DRUGS MEDICAL LTD,10203 97 ST NW,EDMONTON,Alberta,-113.4860766,53.5442384
MEADOWLARK PHARMACY,8704A MEADOWLARK RD,EDMONTON,Alberta,-113.5969485,53.5199336
MEDICINE CIRCLE PHARMACY,11148 124 ST,EDMONTON,Alberta,-113.5363214,53.5603539
MEDICINE MARKET PHARMACY,726 91 ST SW,EDMONTON,Alberta,-113.4750298,53.4266049
MEDICINE PLACE PHARMACY,10660 105 ST NW,EDMONTON,Alberta,-113.5013628,53.5512137
MEDICINE PLACE PHARMACY 2,5809 118 AVE NW,EDMONTON,Alberta,-113.4313159,53.5701612
MEDICINE PLACE PHARMACY 3,13514 97 ST NW,EDMONTON,Alberta,-113.4925595,53.5971139
MEDICINE POINT PHARMACY,102-5016 162 AVE NW,EDMONTON,Alberta,-113.4154187,53.6227622
MEDICINE SHOPPE PHARMACY 103,7915 106 AVE NW,EDMONTON,Alberta,-113.4502926,53.5490104
MEDICINE SHOPPE PHARMACY 105,5011 118 AVE NW,EDMONTON,Alberta,-113.4188887,53.5699784
MEDICINE SHOPPE PHARMACY 107,11464 JASPER AVE NW,EDMONTON,Alberta,-113.519216,53.5411723
MEDICINE SHOPPE PHARMACY 114,128-4211 106 ST,EDMONTON,Alberta,-113.5024133,53.47968
MEDICINE SHOPPE PHARMACY 115,15819 87 AVE NW,EDMONTON,Alberta,-113.5960073,53.5190509
MEDICINE SHOPPE PHARMACY 170,127 MILLBOURNE RD E,EDMONTON,Alberta,-113.4495923,53.4680784
MEDICINE SHOPPE PHARMACY 185,8219 112 ST NW,EDMONTON,Alberta,-113.52034,53.518656
MEDICINE SHOPPE PHARMACY 188,100-11910 111 AVE,EDMONTON,Alberta,-113.5279438,53.5601197
MEDICINE SHOPPE PHARMACY 189,17715 98A AVE NW,EDMONTON,Alberta,-113.6272327,53.5339232
MEDICINE SHOPPE PHARMACY 217,102-121 HADDOW CLOSE NW,EDMONTON,Alberta,-113.5922868,53.458877
MEDICINE SHOPPE PHARMACY 225,8111 118 AVE NW,EDMONTON,Alberta,-113.4660227,53.5701705
MEDICINE SHOPPE PHARMACY 244,9002 JASPER AVE NW,EDMONTON,Alberta,-113.4736676,53.5516346
MEDICINE SHOPPE PHARMACY 266,6837 170 ST NW,EDMONTON,Alberta,-113.6141062,53.5038016
MEDICINE SHOPPE PHARMACY 274,831 SADDLEBACK RD NW,EDMONTON,Alberta,-113.5247194,53.4530753
MEDICINE SHOPPE PHARMACY 315,6525 118 AVE NW,EDMONTON,Alberta,-113.4425658,53.5701873
MEDICINE SHOPPE PHARMACY 320,102-16028 100A AVE NW,EDMONTON,Alberta,-113.5987099,53.5409619
MEDICINE SHOPPE PHARMACY 328,9122 82 AVE NW,EDMONTON,Alberta,-113.4685695,53.5183918
MEDICINE SHOPPE PHARMACY 340,12411 118 AVE NW,EDMONTON,Alberta,-113.5366221,53.570121
MEDICINE SHOPPE PHARMACY 344,9559 118 AVE NW,EDMONTON,Alberta,-113.48989,53.5700829
MEDICINE SHOPPE PHARMACY 345,14020 127 ST NW,EDMONTON,Alberta,-113.5421481,53.6029817
MEDICINE SHOPPE PHARMACY 346,14606 50 ST NW,EDMONTON,Alberta,-113.4186609,53.6090406
MEDICINE SHOPPE PHARMACY 353,10423 158 AVE NW,EDMONTON,Alberta,-113.5020231,53.618637
MEDICINE SHOPPE PHARMACY 370,11407 40 AVE NW,EDMONTON,Alberta,-113.5280733,53.4753487
MEDICINE SHOPPE PHARMACY 377,6610 132 AVE NW,EDMONTON,Alberta,-113.4435633,53.5925578
MEDICINE SHOPPE PHARMACY 383,4345 50 ST NW,EDMONTON,Alberta,-113.4170179,53.4812743
MEDICINE SHOPPE PHARMACY 387,13703 93 ST NW,EDMONTON,Alberta,-113.4846071,53.6000793
MEDICINE SHOPPE PHARMACY 390,2356 23 AVE NW,EDMONTON,Alberta,-113.3765416,53.4549848
MEDICINE SHOPPE PHARMACY 393,10714 142 ST NW,EDMONTON,Alberta,-113.567115,53.551658
MEDICINE SHOPPE PHARMACY 405,10130 111 AVE NW,EDMONTON,Alberta,-113.4948021,53.5592762
MEDICINE SHOPPE PHARMACY 412,9216 ELLERSLIE RD SW,EDMONTON,Alberta,-113.4754158,53.4259652
MEDI-DRUGS CLAREVIEW,3504A 137 AVE,EDMONTON,Alberta,-113.3955072,53.5996308
MEDI-DRUGS MILLCREEK,9117 82 AVE NW,EDMONTON,Alberta,-113.4682583,53.5177839
MEDISENSE PHARMACY,12246 107 AVE NW,EDMONTON,Alberta,-113.533656,53.55122
MEDX DRUGS PLAZA 124,120-10216 124 ST NW,EDMONTON,Alberta,-113.5363734,53.5437586
MILLCREEK PHARMACY,4012 50 ST NW,EDMONTON,Alberta,-113.4182795,53.4763529
MILLHURST PHARMACY,6001 MILLWOODS RD S NW,EDMONTON,Alberta,-113.4303554,53.4452208
MILLWOODS ARP DRUGS,4213 23 AVE NW,EDMONTON,Alberta,-113.4076061,53.454518
MILLWOODS IDA PHARMACY,2841 MILL WOODS RD NW,EDMONTON,Alberta,-113.4466543,53.4596115
MINT HEALTH + DRUGS: CMP,15807 102 AVE NW,EDMONTON,Alberta,-113.59456,53.5430874
MINT HEALTH + DRUGS-CHURCH STREET,10631 96 ST NW,EDMONTON,Alberta,-113.4855384,53.5515306
MIRACARE PHARMACY,3921 106 ST,EDMONTON,Alberta,-113.5046233,53.4749621
NOLAN DRUGS,8731 118 AVE NW,EDMONTON,Alberta,-113.4760469,53.570161
NORTH EAST PHARMACY,7210 144 AVE NW,EDMONTON,Alberta,-113.4516576,53.6063783
NORTHGATE PHARMACY,2074-9499 137 AVE NW,EDMONTON,Alberta,-113.4891501,53.5979629
NORTHTOWN PHARMACY,9042 132 AVE NW,EDMONTON,Alberta,-113.481567,53.592393
NORWOOD PHARMACY,11051 95 ST,EDMONTON,Alberta,-113.4865465,53.5595474
PALISADES PHARMACY,12802 137 AVE NW,EDMONTON,Alberta,-113.5418165,53.6005735
PARK PLAZA PHARMACY,11826 103 ST NW,EDMONTON,Alberta,-113.4986456,53.571053
PARSONS DRUGS,101-625 PARSONS RD SW,EDMONTON,Alberta,-113.478848,53.4278211
PATIENT CARE PHARMACY,7707 85 ST NW,EDMONTON,Alberta,-113.4579477,53.5138535
PHARMA-CURE1 PHARMACY,10536 124 ST NW,EDMONTON,Alberta,-113.5361323,53.5487749
PHARMACY ON 34TH,9220 34 AVE NW,EDMONTON,Alberta,-113.471661,53.465908
PHARMACY ON WHYTE,10050 82 AVE NW,EDMONTON,Alberta,-113.4905271,53.518452
PHARMACY ONE,10003 106 AVE NW,EDMONTON,Alberta,-113.4921203,53.5497502
PHARMASAVE #3011,10652 WINTERBURN RD NW,EDMONTON,Alberta,-113.689781,53.5514117
PHARMASAVE #344,6819 ELLERSLIE RD SW,EDMONTON,Alberta,-113.4436815,53.4240307
PHARMASAVE #377,ROYAL CENTRE NORTH,EDMONTON,Alberta,-113.4519991,53.6284102
PHARMASAVE BEVERLY,3729 118 AVE NW,EDMONTON,Alberta,-113.3996314,53.5702758
PHARMASAVE CHAPPELLE PHARMACY,3134 141 ST SW,EDMONTON,Alberta,-113.5659126,53.4051935
PHARMASAVE HAMPTONS,5244 199 ST NW,EDMONTON,Alberta,-113.6650688,53.4883871
PHARMASAVE HOLYROOD,9020 75 ST NW,EDMONTON,Alberta,-113.4434892,53.5257136
PHARMASAVE SOUTHTRAIL,A109-4456 CALGARY TR NW,EDMONTON,Alberta,-113.4952116,53.4822142
PHARMASAVE WESTMOUNT,10844 124 ST NW,EDMONTON,Alberta,-113.5361799,53.553836
PLAZA 160 PHARMACY,8103 160 AVE NW,EDMONTON,Alberta,-113.4661049,53.6206367
PRIMECARE PHARMACY,5594 WINDERMERE BLVD NW,EDMONTON,Alberta,-113.6208691,53.4401928
PRIMROSE IDA PHARMACY,8462 182 ST,EDMONTON,Alberta,-113.6373716,53.5176725
QURELY PHARMACY,14119 28 AVE SW,EDMONTON,Alberta,-113.5662771,53.4099318
RENAISSANCE DISPENSARY LTD.,102-10416 95 ST NW,EDMONTON,Alberta,-113.4811217,53.5490011
REXALL #7220,11811 JASPER AVE NW,EDMONTON,Alberta,-113.5256538,53.5406637
REXALL #7230,2375 111 ST NW,EDMONTON,Alberta,-113.5136988,53.4549529
REXALL #7232,9404 ELLERSLIE RD SW,EDMONTON,Alberta,-113.4774612,53.425759
REXALL #7236,16703 82 ST NW,EDMONTON,Alberta,-113.4665028,53.6294205
REXALL #7238,14403 MILLER BLVD NW,EDMONTON,Alberta,-113.4132752,53.6075722
REXALL #7248,13709 66 ST NW,EDMONTON,Alberta,-113.4417809,53.6004192
REXALL #7251,10155 50 ST NW,EDMONTON,Alberta,-113.4177506,53.5422277
REXALL #7253,468-5015 111 ST NW,EDMONTON,Alberta,-113.5136882,53.4856393
REXALL #7255,11080 51 AVE NW,EDMONTON,Alberta,-113.5151164,53.4893072
REXALL #7257,10228 142 ST NW,EDMONTON,Alberta,-113.5662794,53.5437504
REXALL #7261,8-9228 144 AVE NW,EDMONTON,Alberta,-113.4832781,53.606946
REXALL #7276,BELMONT TOWN CENTER,EDMONTON,Alberta,-113.3863896,53.5969839
REXALL #7294,9540 163 ST NW,EDMONTON,Alberta,-113.6038579,53.5325517
REXALL #7296,6104 90 AVE NW,EDMONTON,Alberta,-113.4266618,53.5248878
REXALL #7509,3004 GRANVILLE DR NW,EDMONTON,Alberta,-113.6782868,53.5105749
REXALL #7514,10507 KINGSWAY AVE NW,EDMONTON,Alberta,-113.5015099,53.5569503
REXALL MYROS,10646 101 ST NW,EDMONTON,Alberta,-113.4940572,53.5508353
RITCHIE PHARMACY,9614 76 AVE NW,EDMONTON,Alberta,-113.4773671,53.512608
RITE CHOICE PHARMACY LTD.,3-4273 23 AVE NW,EDMONTON,Alberta,-113.4084588,53.4548135
RIVERBEND PHARMACY,5659 RIVERBEND RD NW,EDMONTON,Alberta,-113.5768891,53.49456
RIVERVIEW SERVICES PHARMACY,135-3210 118 AVE NW,EDMONTON,Alberta,-113.3898646,53.5709269
RUTHERFORD PHARMACY,11460 17 AVE SW,EDMONTON,Alberta,-113.5243032,53.4151141
RX HEALTHMED CITY CENTRE PHARMACY,10125 157 ST NW,EDMONTON,Alberta,-113.5915089,53.542248
SADDLEBACK PHARMACY,362 SADDLEBACK RD NW,EDMONTON,Alberta,-113.5306904,53.4600525
SAFEWAY PHARMACY #8858,576 RIVERBEND SQ NW,EDMONTON,Alberta,-113.588488,53.4683376
SAFEWAY PHARMACY #8866,8118 118 AVE NW,EDMONTON,Alberta,-113.4666004,53.5714157
SAFEWAY PHARMACY #8867,11410 104 AVE NW,EDMONTON,Alberta,-113.5181124,53.5473793
SAFEWAY PHARMACY #8879,500 MANNING CROSS NW,EDMONTON,Alberta,-113.4233792,53.60105
SAFEWAY PHARMACY #8880,9710 170 ST NW,EDMONTON,Alberta,-113.6181615,53.5341294
SAFEWAY PHARMACY #8886,600-6655 178 ST NW,EDMONTON,Alberta,-113.6301043,53.5022545
SAFEWAY PHARMACY #8889,12950 137 AVE NE,EDMONTON,Alberta,-113.5446772,53.600686
SAFEWAY PHARMACY #8891,WESTMOUNT SHOPPING CENTRE,EDMONTON,Alberta,-113.5530031,53.5610552
SAFEWAY PHARMACY #8892,200-9499 137 AVE NW,EDMONTON,Alberta,-113.490486,53.5983349
SAFEWAY PHARMACY #8893,5821 TERRACE RD NW,EDMONTON,Alberta,-113.4251685,53.5389277
SAFEWAY PHARMACY #8895,10930 82 AVE NW,EDMONTON,Alberta,-113.5136245,53.5187803
SAFEWAY PHARMACY #8898,185-8330 82 AVE NW,EDMONTON,Alberta,-113.4573286,53.5188581
SAFEWAY PHARMACY #8900,2534 GUARDIAN RD NW,EDMONTON,Alberta,-113.6744003,53.5104495
SAFEWAY PHARMACY #8904,SOUTHGATE SHOPPING CENTRE,EDMONTON,Alberta,-113.5136882,53.4856393
SAFEWAY PHARMACY #8905,15007 STONY PLAIN RD NW,EDMONTON,Alberta,-113.5808664,53.5398122
SAFEWAY PHARMACY #8906,5110 WINDERMERE BLVD NW,EDMONTON,Alberta,-113.5998833,53.4350277
SAFEWAY PHARMACY #8908,38 AVE & MILLWOODS RD NW,EDMONTON,Alberta,-90.4758158,41.472026
SAFEWAY PHARMACY #8921,2304 109 ST NW,EDMONTON,Alberta,-113.509828,53.4547194
SAFEWAY PHARMACY #8928,146-3210 118 AVE NW,EDMONTON,Alberta,-113.3905698,53.5715282
SAVE-ON-FOODS PHARMACY #6609,360 MAYFIELD COMMON NW,EDMONTON,Alberta,-113.6115125,53.5421203
SAVE-ON-FOODS PHARMACY #6612,8124 112 AVE NW,EDMONTON,Alberta,-113.4662716,53.5624433
SAVE-ON-FOODS PHARMACY #6613,10180 109 ST NW,EDMONTON,Alberta,-113.5092279,53.5426694
SAVE-ON-FOODS PHARMACY #6614,3361 CALGARY TR NW,EDMONTON,Alberta,-113.4940861,53.466724
SAVE-ON-FOODS PHARMACY #6615,6260 199 ST NW,EDMONTON,Alberta,-113.6678228,53.4955344
SAVE-ON-FOODS PHARMACY #6619,14161 23 AVE,EDMONTON,Alberta,-113.5642041,53.4526932
SAVE-ON-FOODS PHARMACY #6620 - 50TH ST MARKET,4805 167 AVE NW,EDMONTON,Alberta,-113.4091611,53.6273233
SAVE-ON-FOODS PHARMACY #6622,1120 91 ST SW,EDMONTON,Alberta,-113.4759673,53.4228979
SAVE-ON-FOODS PHARMACY #6630,11180 ELLERSLIE RD SW,EDMONTON,Alberta,-113.519447,53.425796
SAVE-ON-FOODS PHARMACY #6661,LONDONDERRY MALL,EDMONTON,Alberta,-113.445885,53.6017648
SAVE-ON-FOODS PHARMACY #6662,10368 78 AVE NW,EDMONTON,Alberta,-113.4968463,53.5144138
SAVE-ON-FOODS PHARMACY #6664,9510 160 AVE NW,EDMONTON,Alberta,-113.4885828,53.6217503
SAVE-ON-FOODS PHARMACY #6667,12903 153 AVE NW,EDMONTON,Alberta,-113.5434516,53.6157237
SAVE-ON-FOODS PHARMACY #6670,2390 24 ST NW,EDMONTON,Alberta,-113.3804564,53.4553861
SAVE-ON-FOODS PHARMACY #6672-LEWIS ESTATES,1264 WEBBER GREENS DR NW,EDMONTON,Alberta,-113.6863939,53.5296993
SAVE-ON-FOODS PHARMACY #6673,3005 HAYS RIDGE DR SW,EDMONTON,Alberta,-113.5671386,53.4119338
SCONA PHARMACY,10429 80 AVE NW,EDMONTON,Alberta,-113.498676,53.515842
SCRIPTS MEDICAL PHARMACY,201-6925 GATEWAY BLVD,EDMONTON,Alberta,-113.4908403,53.4874471
SEVEN DAYS PHARMACY,4121 118 AVE NW,EDMONTON,Alberta,-113.4059175,53.5701611
SHOPPERS DRUG MART #2301,14135 23 AVE NW,EDMONTON,Alberta,-113.563441,53.4527352
SHOPPERS DRUG MART #2307,3735 17 ST NW,EDMONTON,Alberta,-113.3678697,53.475366
SHOPPERS DRUG MART #2315,102-11962 104 AVE NW,EDMONTON,Alberta,-113.5270754,53.5474962
SHOPPERS DRUG MART #2370,12955 153 AVE NW,EDMONTON,Alberta,-113.5434767,53.6164807
SHOPPERS DRUG MART #2373,250 WATT COMMON SW,EDMONTON,Alberta,-113.4251328,53.4230491
SHOPPERS DRUG MART #2374,15969 97 ST NW,EDMONTON,Alberta,-113.4897502,53.620433
SHOPPERS DRUG MART #2377,5970 MULLEN WAY NW,EDMONTON,Alberta,-113.571347,53.435203
SHOPPERS DRUG MART #2379,10405 JASPER AVE NW,EDMONTON,Alberta,-113.5001375,53.5405641
SHOPPERS DRUG MART #2385,1024 WEBBER GREENS DR NW,EDMONTON,Alberta,-113.6697327,53.5250385
SHOPPERS DRUG MART #2396,6428 28 AVE NW,EDMONTON,Alberta,-113.4314423,53.4601523
SHOPPERS DRUG MART #2405,4940 137 AVE NW,EDMONTON,Alberta,-113.4098933,53.5975727
SHOPPERS DRUG MART #2412,2650 JAMES MOWATT TRAIL SW,EDMONTON,Alberta,-113.5350908,53.4067942
SHOPPERS DRUG MART #2418,8065 104 ST NW,EDMONTON,Alberta,-113.4963442,53.5166471
SHOPPERS DRUG MART #2434,102-10255 101 ST NW,EDMONTON,Alberta,-113.4933857,53.5439715
SHOPPERS DRUG MART #2439,11120 ELLERSLIE RD SW,EDMONTON,Alberta,-113.5174448,53.426376
SHOPPERS DRUG MART #2440,6290 199 ST NW,EDMONTON,Alberta,-113.6659492,53.4957481
SHOPPERS DRUG MART #2441,2350 24 ST NW,EDMONTON,Alberta,-113.3784511,53.4554434
SHOPPERS DRUG MART #2443,10116 150 ST NW,EDMONTON,Alberta,-113.5809834,53.541953
SHOPPERS DRUG MART #2446,5351 167 AVE NW,EDMONTON,Alberta,-113.4170981,53.6283182
SHOPPERS DRUG MART #2448,924 91 ST SW,EDMONTON,Alberta,-113.4764933,53.4245307
SHOPPERS DRUG MART #2469,2037 111 ST NW,EDMONTON,Alberta,-113.5138166,53.452404
SHOPPERS DRUG MART #2470,18224 89 AVE,EDMONTON,Alberta,-113.6393518,53.5241243
SHOPPERS DRUG MART #2478,12745 50 ST NW,EDMONTON,Alberta,-113.4170174,53.586588
SHOPPERS DRUG MART #302,101 LONDONDERRY MALL NW,EDMONTON,Alberta,-113.445885,53.6017648
SHOPPERS DRUG MART #312,10907 82 AVE NW,EDMONTON,Alberta,-113.5125142,53.5178033
SHOPPERS DRUG MART #313,254 MEADOWLARK HEALTH CTR,EDMONTON,Alberta,-113.5933513,53.5206855
SHOPPERS DRUG MART #317,192 KINGSWAY GARDEN MALL NW,EDMONTON,Alberta,-113.505546,53.562677
SHOPPERS DRUG MART #319,188 MILLBOURNE MALL,EDMONTON,Alberta,-113.4503738,53.4722788
SHOPPERS DRUG MART #328,10955 23 AVE NW,EDMONTON,Alberta,-113.5118105,53.4532005
SHOPPERS DRUG MART #332,400-6655 178 ST NW,EDMONTON,Alberta,-113.6284757,53.5016247
SHOPPERS DRUG MART #344,EDMONTON CITY CENTRE WEST,EDMONTON,Alberta,-113.4922762,53.543925
SHOPPERS DRUG MART #346,417-2331 66 ST NW,EDMONTON,Alberta,-113.4290958,53.4558578
SHOPPERS DRUG MART #352,584 RIVERBEND SQ NW,EDMONTON,Alberta,-113.5891445,53.4686148
SHOPPERS DRUG MART #363,162-8330 82 AVE NW,EDMONTON,Alberta,-113.457589,53.5204002
SHOPPERS DRUG MART #365,11720 JASPER AVE NW,EDMONTON,Alberta,-113.5238014,53.5412298
SHOPPERS DRUG MART #366,3812 118 AVE NW,EDMONTON,Alberta,-113.4003866,53.570639
SHOPPERS DRUG MART #370,8121 118 AVE,EDMONTON,Alberta,-113.466827,53.5702047
SHOPPERS DRUG MART #371,3945 34 ST NW,EDMONTON,Alberta,-113.3922114,53.4745785
SHOPPERS DRUG MART #375,16504 95 ST NW,EDMONTON,Alberta,-113.4875008,53.6273055
SHOPPERS DRUG MART #381,7469 101 AVE NW,EDMONTON,Alberta,-113.4420636,53.5405718
SHOPPERS DRUG MART #383,212 WESTMOUNT CENTRE,EDMONTON,Alberta,-113.5530031,53.5610552
SHOPPERS DRUG MART #386,9570 170 ST NW,EDMONTON,Alberta,-113.6170592,53.5332279
SHOPPERS DRUG MART #387,9980 137 AVE NW,EDMONTON,Alberta,-113.497153,53.6002197
SHOPPERS DRUG MART #397,13040 137 AVE NW,EDMONTON,Alberta,-113.546336,53.600072
SHOPPERS SIMPLY PHARMACY #3084,6603 132 AVE NW,EDMONTON,Alberta,-113.4434412,53.591838
SHOPPERS SIMPLY PHARMACY #3085,10839 23 AVE NW,EDMONTON,Alberta,-113.5075531,53.452779
SMART PHARMACY,11123 95 ST NW,EDMONTON,Alberta,-113.4869092,53.5608887
SOBEYS PHARMACY #3035,9611 167 AVE NW,EDMONTON,Alberta,-113.4891796,53.6282562
SOBEYS PHARMACY #3132,15367 CASTLEDOWNS RD NW,EDMONTON,Alberta,-113.5145002,53.6156803
SOBEYS PHARMACY #3143,5011 23 AVE NW,EDMONTON,Alberta,-113.421703,53.453775
SOBEYS PHARMACY #3194,1030 WEBBER GREENS DR NW,EDMONTON,Alberta,-113.6698969,53.5242823
SOBEYS PHARMACY #5169,1109 JAMES MOWATT TR SW,EDMONTON,Alberta,-113.5144609,53.4226904
SOBEY'S PHARMACY #5173,5119 167 AVE NW,EDMONTON,Alberta,-113.4143742,53.6272694
SOBEYS PHARMACY #5190,5309 ELLERSLIE RD SW,EDMONTON,Alberta,-113.425223,53.4242832
SOUTH BLVD PHARMACY,4220 GATEWAY BLVD NW,EDMONTON,Alberta,-113.4929579,53.4785028
SRX PHARMACY #2,B01-8625 112 ST,EDMONTON,Alberta,-113.520446,53.5226169
STONY PHARMACY,15506 STONY PLAIN RD,EDMONTON,Alberta,-113.5888455,53.5416284
STRATHCONA PRESCRIPTION CENTRE,8225 105 ST NW,EDMONTON,Alberta,-113.4999946,53.5187961
SUMMERSIDE PHARMACY,3-1109 SUMMERSIDE DR SW,EDMONTON,Alberta,-113.462299,53.4238067
SUPER MARK DRUGS,130-8930 JASPER AVE NW,EDMONTON,Alberta,-113.4738275,53.552731
TAWA PHARMASAVE,3013 66 ST NW,EDMONTON,Alberta,-113.4330445,53.4615238
TERRALOSA PHARMACY,17314 99 AVE,EDMONTON,Alberta,-113.6194787,53.5361005
TERWILLEGAR PHARMACY,1717 TOWNE CENTRE BLVD NW,EDMONTON,Alberta,-113.5775627,53.4453971
THE DRUG STORE (CASTLEDOWNS),11824 145 AVE NW,EDMONTON,Alberta,-113.5267801,53.607822
TIPASKAN PHARMACY,3236 82 ST NW,EDMONTON,Alberta,-113.4577232,53.4647988
TRINITY PHARMACY,10530 101 ST NW,EDMONTON,Alberta,-113.494235,53.548555
TWIN BROOKS PHARMACY,11029 9 AVE NW,EDMONTON,Alberta,-113.5171338,53.4390928
UNIVERSITY HEALTH CENTRE PHARMACY,1-10 STUDENTS UNION BLDG,EDMONTON,Alberta,-113.5273898,53.5253367
UPHARMACY,101-5083 WINDEMERE BLVD SW,EDMONTON,Alberta,-113.5922476,53.4327408
VIC'S SUPER DRUGS,9202 149 ST NW,EDMONTON,Alberta,-113.5782722,53.5269157
VIDA PHARMACY,5320 CALGARY TR NW,EDMONTON,Alberta,-113.4958229,53.490921
VILLAGE PHARMACY,9805 71 ST NW,EDMONTON,Alberta,-113.4363465,53.5378852
WALDINS PHARMACY LTD.,9124 23 AVE NW,EDMONTON,Alberta,-113.4697619,53.4524671
WALKER LAKE REMEDY'S RX,5007 22 AVE SW,EDMONTON,Alberta,-113.4188881,53.4139831
WAL-MART PHARMACY #1094,6110 CURRENTS DR NW,EDMONTON,Alberta,-113.6001044,53.4387551
WAL-MART PHARMACY #1122,16940 127 ST NW,EDMONTON,Alberta,-113.5434367,53.6317684
WAL-MART PHARMACY #1138,775 TAMARACK WAY NW,EDMONTON,Alberta,-113.362946,53.4791087
WAL-MART PHARMACY #1145,SOUTHPARK VILLAGE,EDMONTON,Alberta,-113.4930986,53.475465
WAL-MART PHARMACY #1146,9402 135 AVE NW,EDMONTON,Alberta,-113.4889192,53.5978303
WAL-MART PHARMACY #1147,110-3210 118 AVE NW,EDMONTON,Alberta,-113.3907307,53.5714422
WAL-MART PHARMACY #1148,WESTMOUNT SHOPPING CENTRE,EDMONTON,Alberta,-113.5530031,53.5610552
WAL-MART PHARMACY #1149,156 ST & 87 AVE NW,EDMONTON,Alberta,-73.810883,40.754265
WAL-MART PHARMACY #1187,110 WATT COMMON SW,EDMONTON,Alberta,-113.4192572,53.4224307
WAL-MART PHARMACY #3026,CAPILANO SHOPPING CENTRE,EDMONTON,Alberta,-113.4217641,53.539511
WAL-MART PHARMACY #3027,18521 STONY PLAIN RD NW,EDMONTON,Alberta,-113.6442396,53.5387057
WAL-MART PHARMACY #3028,13703 40 ST NW,EDMONTON,Alberta,-113.4006801,53.5997014
WAL-MART PHARMACY #3029,1203 PARSONS RD NW,EDMONTON,Alberta,-113.4818023,53.4401809
WE CARE PHARMACY,11912 JASPER AVE,EDMONTON,Alberta,-113.5273448,53.5411116
WEST EDMONTON MALL PHARMASAVE #331,2031-8882 170 ST NW,EDMONTON,Alberta,-113.618853,53.521517
WEST HEALTH PHARMACY,10660 156 ST NW,EDMONTON,Alberta,-113.5907614,53.55053
WESTWOOD PHARMACY,6637 177 ST NW,EDMONTON,Alberta,-113.6258789,53.502014
WINDERMERE PHARMACY,5544 WINDERMERE BLVD NW,EDMONTON,Alberta,-113.6194241,53.4397848
EDSON PHARMACY REMEDY'S RX,4924 4 AVE,EDSON,Alberta,-116.431235,53.583714
LOBLAW PHARMACY #4905,4431 4 AVE,EDSON,Alberta,-116.4191772,53.5864928
SHOPPERS DRUG MART #336,100-302 53 ST,EDSON,Alberta,-116.4390066,53.5803794
SWITZER'S DRUGS,224 50 ST,EDSON,Alberta,-116.4313636,53.5823063
WAL-MART PHARMACY #1048,5750 2 AVE,EDSON,Alberta,-116.4492574,53.57762
ELK POINT PHARMACY,4902 50 ST,ELK POINT,Alberta,-110.9006404,53.8964758
GUARDIAN DRUGS ELK POINT,4831 50 ST,ELK POINT,Alberta,-110.8995543,53.8957393
EVANSBURG PHARMACY,5107 50 ST,EVANSBURG,Alberta,-115.0187942,53.6028773
BECHER PHARMACY LTD,10400 110 ST,FAIRVIEW,Alberta,-118.3845937,56.0687981
PHARMASAVE #397,11015 102 AVE,FAIRVIEW,Alberta,-118.3856708,56.0664598
REXALL #7521,10216 110 ST,FAIRVIEW,Alberta,-118.3847702,56.0672307
FALHER I.D.A. PHARMACY,5 MAIN ST,FALHER,Alberta,-117.2022827,55.7380764
FORT PHARMACY,240 24 ST,FORT MACLEOD,Alberta,-113.4074391,49.725379
LOBLAW PHARMACY #4410,1906 8 AVE,FORT MACLEOD,Alberta,-113.3896384,49.722356
RX DRUG MART #2020,220 24 ST,FORT MACLEOD,Alberta,-113.4080864,49.725294
DAVE HILL PHARMACY,1-200 THICKWOOD BLVD,FORT MCMURRAY,Alberta,-111.4459729,56.7308128
HARDIN PHARMACY,SUITE A-UNIT 6 9711 HARDIN ST,FORT MCMURRAY,Alberta,-111.3779681,56.7249116
LOBLAW PHARMACY #1548,PHARMACY DEPARTMENT,FORT MCMURRAY,Alberta,-111.427302,56.73081
LOBLAW PHARMACY #4683,251 POWDER DR,FORT MCMURRAY,Alberta,-111.460874,56.7564976
MEDICINE SHOPPE PHARMACY 237,9914 MORRISON ST,FORT MCMURRAY,Alberta,-111.3860247,56.729055
MEDICINE SHOPPE PHARMACY 349,141B-355 LOUTIT RD,FORT MCMURRAY,Alberta,-111.4285879,56.7527856
MEDICINE SHOPPE PHARMACY 372,203-8706 FRANKLIN AVE,FORT MCMURRAY,Alberta,-111.3626588,56.7213625
SAFEWAY PHARMACY #8907,9601 FRANKLIN AVE,FORT MCMURRAY,Alberta,-111.3746746,56.7230161
SAVE-ON-FOODS PHARMACY #6616,106-100 RIVERSTONE RIDGE,FORT MCMURRAY,Alberta,-111.4399374,56.7589809
SAVE-ON-FOODS PHARMACY #6617,131 SIGNAL RD,FORT MCMURRAY,Alberta,-111.4270225,56.7299436
SHOPPERS DRUG MART #2303,103-112 RIVERSTONE RIDGE,FORT MCMURRAY,Alberta,-111.4380363,56.7589889
SHOPPERS DRUG MART #337,190-121 SIGNAL RD,FORT MCMURRAY,Alberta,-111.4259952,56.7293871
SHOPPERS DRUG MART #8869,500-8600 FRANKLIN AVE,FORT MCMURRAY,Alberta,-111.3609732,56.7205048
SYNERGY CENTRE PHARMACY,8550 FRANKLIN AVE,FORT MCMURRAY,Alberta,-111.3589316,56.7190939
TAMARACK PHARMACY & TRAVEL CLINIC,308-9612 FRANKLIN AVE,FORT MCMURRAY,Alberta,-111.3711218,56.7246204
TIMBERLEA PHARMACY,8-122 MILLENNIUM DR,FORT MCMURRAY,Alberta,-111.462371,56.756327
WAL-MART PHARMACY #3157,2 HOSPITAL ST,FORT MCMURRAY,Alberta,-111.3586074,56.7223098
ABEX PHARMACY,103-121 TOWN CREST RD,FORT SASKATCHEWAN,Alberta,-113.2379109,53.6825966
CO-OP PHARMACY FORT SASKATCHEWAN,10004 99 AVE,FORT SASKATCHEWAN,Alberta,-113.2159199,53.709674
FORT STATION PHARMACY,629-10490 98 AVE,FORT SASKATCHEWAN,Alberta,-113.2048216,53.7114104
LOBLAW PHARMACY #4953,100-8802 100 ST,FORT SASKATCHEWAN,Alberta,-113.209796,53.698111
MEDICINE SHOPPE PHARMACY 117,102-9940 99 AVE,FORT SASKATCHEWAN,Alberta,-113.2185399,53.7077255
REXALL #7215,116 TOWN CREST RD,FORT SASKATCHEWAN,Alberta,-113.2411634,53.6818667
SAFEWAY PHARMACY #8894,9450 86 AVE,FORT SASKATCHEWAN,Alberta,-113.2121847,53.6938457
SHOPPERS DRUG MART #2388,100 WESTPARK BLVD,FORT SASKATCHEWAN,Alberta,-113.2480609,53.6821544
SHOPPERS DRUG MART #378,9360 SOUTHFORT DR,FORT SASKATCHEWAN,Alberta,-113.2166138,53.6949989
WAL-MART PHARMACY #5753,9551 87 AVE,FORT SASKATCHEWAN,Alberta,-113.2107586,53.6971822
YAKIMETS PHARMACY,101-10101 86 AVE,FORT SASKATCHEWAN,Alberta,-113.201635,53.6981083
REXALL #7204  ,14 COMMERCIAL CT,FOX CREEK,Alberta,-116.8052507,54.3946515
GIBBONS GUARDIAN PHARMACY,4715 50 AVE,GIBBONS,Alberta,-113.3258414,53.8277492
GIBBONS REMEDY'S RX,4728 50 AVE,GIBBONS,Alberta,-113.3252583,53.8282386
MEDICINE SHOPPE PHARMACY 416,216 5 AVE E,GLEICHEN,Alberta,-113.0522357,50.8662181
PHARMASAVE #326 ,5012 RAILWAY AVE NE,GLENDON,Alberta,-111.16038,54.250625
FOURNIER DRUGS,1306 SHOPPERS PARK MALL,GRANDE CACHE,Alberta,-119.116575,53.888318
GRANDE CACHE PHARMACY,1609 ACORN PLAZA,GRANDE CACHE,Alberta,-119.1190431,53.8899496
COSTCO PHARMACY #254,9901 116 ST,GRANDE PRAIRIE,Alberta,-118.8443225,55.16891
GRANDE BANKS PHARMACY,105-10302 67 AVE,GRANDE PRAIRIE,Alberta,-118.8061706,55.1410368
HEALTH HUB PHARMACY,106B-10127 121 AVE,GRANDE PRAIRIE,Alberta,-118.7998866,55.1890248
LOBLAW PHARMACY #1544,12225 99 ST,GRANDE PRAIRIE,Alberta,-118.790751,55.1909071
LONDON DRUGS #34,10820 104B AVE,GRANDE PRAIRIE,Alberta,-118.8118224,55.1988212
MINT HEALTH + DRUGS: STERLING,106-11601 101 AVE,GRANDE PRAIRIE,Alberta,-118.8473817,55.1716891
PHARMASAVE JUNCTION POINT,"102, 9625 97 ST",GRANDE PRAIRIE,Alberta,-118.7839385,55.1671661
ROYAL OAKS PHARMASAVE,101-11745 105 ST,GRANDE PRAIRIE,Alberta,-118.8082423,55.1870915
SAFEWAY PHARMACY #8871,9925 114 AVE,GRANDE PRAIRIE,Alberta,-118.7929614,55.1835525
SAFEWAY PHARMACY #8888,8060 100 ST,GRANDE PRAIRIE,Alberta,-118.7992207,55.1548862
SAVE-ON-FOODS PHARMACY #6628,10819 106 AVE,GRANDE PRAIRIE,Alberta,-118.8222221,55.1751613
SHOPPERS DRUG MART #2311,10720 78 AVE,GRANDE PRAIRIE,Alberta,-118.8189361,55.1521224
SHOPPERS DRUG MART #2452,9930 92 ST,GRANDE PRAIRIE,Alberta,-118.7667983,55.1700322
SHOPPERS DRUG MART #315,137-11801 100 ST,GRANDE PRAIRIE,Alberta,-118.792528,55.187288
SHOPPERS DRUG MART #360,5-9701 84 AVE,GRANDE PRAIRIE,Alberta,-118.7874739,55.155613
WAL-MART PHARMACY #3147,11050 103 AVE,GRANDE PRAIRIE,Alberta,-118.8276558,55.1727227
PHARMASAVE GRIMSHAW 3006,5304 50 ST,GRIMSHAW,Alberta,-117.606253,56.190467
REXALL #7520,5008 54 AVE,GRIMSHAW,Alberta,-117.6086966,56.1910782
PHARMASAVE #354  ,610 2 AVE W,HANNA,Alberta,-111.9398692,51.6417229
HARDISTY COMMUNITY DRUG MART ,5032 50 ST,HARDISTY,Alberta,-111.3052387,52.6759376
MEDICINE SHOPPE PHARMACY 129,4409 PLEASANTVIEW DR,HIGH PRAIRIE,Alberta,-116.4799677,55.4352635
RX DRUG MART #2015,5109 49 ST,HIGH PRAIRIE,Alberta,-116.4913939,55.4316225
RX DRUG MART #2021,5004 53 AVE,HIGH PRAIRIE,Alberta,-116.4958563,55.4334255
BISHOP'S CROSSING PHARMACY & TRAVEL CLINIC,300B-1212 5 ST SE,HIGH RIVER,Alberta,-113.8585543,50.5715173
CALGARY CO-OP PHARMACY #24,100-1220 1 ST SE,HIGH RIVER,Alberta,-113.8683472,50.5773238
HIGH RIVER PHARMACY,103 3 AVE SW,HIGH RIVER,Alberta,-113.8726067,50.5799608
LOBLAW PHARMACY #4398,1103 18 ST SE,HIGH RIVER,Alberta,-113.8432334,50.5728248
MEDICINE SHOPPE PHARMACY 317,102-303 9 AVE SW,HIGH RIVER,Alberta,-113.876681,50.5746156
NUAID HIGH RIVER PHARMACY,300 HIGH COUNTRY DR NW,HIGH RIVER,Alberta,-113.8790304,50.5926532
REXALL #7240,139 5 AVE SW,HIGH RIVER,Alberta,-113.8744353,50.5781913
SHOPPERS DRUG MART #2365,30 3 AVE SE,HIGH RIVER,Alberta,-113.8695485,50.5803674
ANDERSON DRUG BY FRESON BROS HINTON HILL,632 CARMICHAEL LANE,HINTON,Alberta,-117.6120738,53.3923614
KING DRUG,145 ATHABASCA AVE,HINTON,Alberta,-117.544787,53.423846
REXALL #7256,177 PEMBINA AVE,HINTON,Alberta,-117.5886632,53.3987036
SHOPPERS DRUG MART #2324,10-632 CARMICHAEL LANE,HINTON,Alberta,-117.612073,53.392361
WAL-MART PHARMACY #3038,PARKS WEST MALL,HINTON,Alberta,-117.6255078,53.3834089
HYTHE GUARDIAN PHARMACY ,10404C 100 ST,HYTHE,Alberta,-119.5506161,55.3278932
JACKSON'S PHARMASAVE #327,5011 49 ST,INNISFAIL,Alberta,-113.9507929,52.026227
LOBLAW PHARMACY #4959,5080 43 AVE,INNISFAIL,Alberta,-113.935049,52.0294669
SANDSTONE PHARMACIES HENDAY CENTRE,127 HENDAY CENTRE,INNISFAIL,Alberta,-113.946087,52.029372
IRRICANA REMEDY'S RX PHARMACY,309 1 AVE,IRRICANA,Alberta,-113.6086055,51.3220105
PHARMASAVE #317 JASPER,610A PATRICIA ST,JASPER,Alberta,-118.0821572,52.8751898
RX DRUG MART #2019,602 PATRICIA ST,JASPER,Alberta,-118.081886,52.875751
CEDAR PHARMACY,10017 ALBERTA AVE,LAC LA BICHE,Alberta,-111.9842701,54.767016
CRESCENT DRUGS LTD.,10029 101 AVE,LAC LA BICHE,Alberta,-111.974556,54.7707658
LOBLAW PHARMACY #4906,10527 101 AVE,LAC LA BICHE,Alberta,-111.9889277,54.7642413
VALUE DRUG MART,10133 101 AVE,LAC LA BICHE,Alberta,-111.9777439,54.7696181
FISHER'S PHARMASAVE,103-5035 50 ST,LACOMBE,Alberta,-113.7302509,52.464294
LACOMBE IDA PHARMACY,B-5019 51 ST,LACOMBE,Alberta,-113.7317414,52.463805
LOBLAW PHARMACY #4201,5700 HWY 2A,LACOMBE,Alberta,-113.9753368,50.7359797
REXALL #7224,5010 53 ST,LACOMBE,Alberta,-113.7358875,52.4633435
SHOPPERS DRUG MART #340,2-5700 HWY 2A,LACOMBE,Alberta,-113.9753368,50.7359797
LAMONT COUNTY PHARMACY,5122 50 AVE,LAMONT,Alberta,-112.785865,53.760047
LAMONT VALUE DRUG MART,5030 50 AVE,LAMONT,Alberta,-112.7839044,53.7601027
MINT HEALTH + DRUGS: LANGDON,107-355 CENTRE ST,LANGDON,Alberta,-113.6801824,50.9739364
SANDSTONE PHARMACIES LANGDON,201-97 CENTRE ST SW,LANGDON,Alberta,-113.6816134,50.9674772
LEDUC COMMUNITY PHARMACY & TRAVEL CLINIC,105-4809 43A AVE,LEDUC,Alberta,-113.5475706,53.2562232
LEDUC CO-OP PHARMACY,5421 50 ST,LEDUC,Alberta,-113.5501805,53.2696117
LOBLAW PHARMACY #4950,3915 50 ST,LEDUC,Alberta,-113.5424142,53.2526859
MEDICINE POINT PHARMACY #102,103-200 AWENTIA DR,LEDUC,Alberta,-113.593578,53.2660193
MEDICINE SHOPPE PHARMACY 264,18-4302 50 ST,LEDUC,Alberta,-113.5493912,53.2553413
MEDSCHECK PHARMACY,102-6207 50 ST,LEDUC,Alberta,-113.5468087,53.2775175
PRIMECARE PHARMACY,103-3610 ROLLYVIEW RD,LEDUC,Alberta,-113.5246189,53.2510415
REXALL #7212,2-5201 50 ST,LEDUC,Alberta,-113.551089,53.267548
SAFEWAY PHARMACY #8857,6112 50 ST,LEDUC,Alberta,-113.5489584,53.2738025
SHOPPERS DRUG MART #310,7-6108 50 ST,LEDUC,Alberta,-113.5532259,53.267348
WAL-MART PHARMACY #3657,5302 DISCOVERY WAY,LEDUC,Alberta,-113.5701929,53.2685457
WILLOW PARK PHARMASAVE #362,5905 50 ST,LEDUC,Alberta,-113.549509,53.2730071
PHARMASAVE #312 LEGAL ,4718 50 AVE,LEGAL,Alberta,-113.5913558,53.9493313
6 & 6 PHARMACY,526 6 ST S,LETHBRIDGE,Alberta,-112.8386139,49.6917262
CAREBRIDGE REMEDY'S RX PHARMACY,402 8 ST S,LETHBRIDGE,Alberta,-112.8355931,49.694075
COSTCO WHOLESALE PHARMACY #160,3200 MAYOR MAGRATH DR S,LETHBRIDGE,Alberta,-112.7957476,49.6600477
DRUGSTORE PHARMACY #6716,1706 MAYOR MAGRATH DR S,LETHBRIDGE,Alberta,-112.8035316,49.6747308
GAIL'S APOTHECARY AND COMPOUNDING PHARMACY,2-425 13 ST N,LETHBRIDGE,Alberta,-112.8237571,49.7263658
GLOBAL REMEDY'S PHARMACY,414 13 ST N,LETHBRIDGE,Alberta,-112.8244781,49.7049446
LOBLAW PHARMACY #1541,3515 MAYOR MAGRATH DR S,LETHBRIDGE,Alberta,-112.7891396,49.6590653
LONDON DRUGS #38,65-1240 2A AVE N,LETHBRIDGE,Alberta,-112.8277163,49.7003171
MEDICINE SHOPPE PHARMACY 127,1016A 20 ST S,LETHBRIDGE,Alberta,-112.8132322,49.6829772
MEDICINE SHOPPE PHARMACY 284,2-1904 13 AVE N,LETHBRIDGE,Alberta,-112.812793,49.716134
MEDICINE SHOPPE PHARMACY 374,20-15 SOUTHGATE BLVD S,LETHBRIDGE,Alberta,-112.7927967,49.6595889
MEDICINE SHOPPE PHARMACY 388,2-245 13 ST N,LETHBRIDGE,Alberta,-112.823546,49.702143
NORBRIDGE PHARMACY,722 23 ST N,LETHBRIDGE,Alberta,-112.808881,49.71038
PETRA PHARMACY,1010 MAYOR MAGRATH DR S,LETHBRIDGE,Alberta,-112.8063036,49.6834482
PHARMASAVE #356,601 6 AVE S,LETHBRIDGE,Alberta,-112.8378145,49.6913079
PHARMASAVE #369,319 5 ST S,LETHBRIDGE,Alberta,-112.839964,49.694942
PHARMASAVE LEGACY,20-2667 SCENIC DR N,LETHBRIDGE,Alberta,-112.8294463,49.7278024
PRESCRIPTION CENTRE WEST,30 JERRY POTTS BLVD W,LETHBRIDGE,Alberta,-112.886811,49.6795775
REXALL #7517,20-12 AQUITANIA BLVD W,LETHBRIDGE,Alberta,-112.9059193,49.6770626
SAFEWAY PHARMACY #8854,2750 FAIRWAY PLAZA RD S,LETHBRIDGE,Alberta,-112.7951826,49.6662506
SAFEWAY PHARMACY #8920,1-550 UNIVERSITY DR,LETHBRIDGE,Alberta,-112.8933841,49.6918232
SAVE-ON-FOODS PHARMACY #6645,45-1240 2A AVE N,LETHBRIDGE,Alberta,-112.8277163,49.7003171
SAVE-ON-FOODS PHARMACY #6650,401 HIGHLANDS BLVD W,LETHBRIDGE,Alberta,-112.8968199,49.6944064
SHOPPERS DRUG MART #2318,3071 26 AVE N,LETHBRIDGE,Alberta,-112.7975708,49.7276817
SHOPPERS DRUG MART #308,101 PARK PLACE SHOPPING CENTRE,LETHBRIDGE,Alberta,-112.8405777,49.6987267
SHOPPERS DRUG MART #362,102-2045 MAYOR MAGRATH DR S,LETHBRIDGE,Alberta,-112.8108966,49.6971278
SHOPPERS DRUG MART #364,110 COLUMBIA BLVD W,LETHBRIDGE,Alberta,-112.8736966,49.6755395
SIX08 PHARMACY,608 5 AVE S,LETHBRIDGE,Alberta,-112.8376331,49.6927041
SKELTON'S PHARMACY (1983),424 MAYOR MAGRATH DR,LETHBRIDGE,Alberta,-112.8108364,49.6939314
SOBEYS PHARMACY #1104,327 BLUEFOX BLVD N,LETHBRIDGE,Alberta,-112.8082324,49.7281628
STAFFORD PHARMACY & HOME HEALTHCARE,5-1475 ST. EDWARD BLVD N,LETHBRIDGE,Alberta,-112.831563,49.717946
STOKES PHARMACY,408 4 AVE S,LETHBRIDGE,Alberta,-112.8403391,49.6943102
STUBBS PHARMACY,1506 9 AVE S,LETHBRIDGE,Alberta,-112.820478,49.6863282
THRIFTWAY PHARMACY,702 13 ST N,LETHBRIDGE,Alberta,-112.8244609,49.7093606
WAL-MART PHARMACY #1078,3195 26 AVE N,LETHBRIDGE,Alberta,-112.7993907,49.7276199
WAL-MART PHARMACY #3048,3700 MAYOR MAGRATH DR S,LETHBRIDGE,Alberta,-112.7952405,49.6572963
WESTBRIDGE PHARMACY,20-872 HERITAGE BLVD W,LETHBRIDGE,Alberta,-112.8884499,49.6926703
WOODS DISPENSARY,2931 20 AVE S,LETHBRIDGE,Alberta,-112.7979346,49.673165
PHARMASAVE LINDEN ,113 CENTRAL AVE E,LINDEN,Alberta,-113.4838253,51.5904803
MAGRATH PHARMACY,80 SOUTH 1 ST W,MAGRATH,Alberta,-112.8691662,49.415542
MANNING IDA PHARMACY,403 MAIN ST,MANNING,Alberta,-117.6297064,56.9219414
MANNVILLE PHARMACY ,5025 50 ST,MANNVILLE,Alberta,-111.1788593,53.338201
ROOTS & BERRIES PHARMACY,MASKWACIS HEALTH CENTRE,MASKWACIS,Alberta,-113.4487253,52.8343573
TOWN & COUNTRY MASKWACIS PHARMACY,4910 50 ST,MASKWACIS,Alberta,-113.4184266,53.4861225
MAYERTHORPE PHARMACY,1-4821 50 ST,MAYERTHORPE,Alberta,-115.1383757,53.9536139
REXALL #7201,5006 50 ST,MAYERTHORPE,Alberta,-115.1392458,53.9549628
MCLENNAN IDA PHARMACY,15 1 AVE NW,MCLENNAN,Alberta,-116.9056716,55.7094906
COSTCO PHARMACY #593,2350 BOX SPRING RD NW,MEDICINE HAT,Alberta,-110.7417523,50.0641542
GREG'S REMEDY'S RX,200-770 6 ST SW,MEDICINE HAT,Alberta,-110.7059776,50.0336566
HILL PHARMACY,107-266 4 ST SW,MEDICINE HAT,Alberta,-110.6898013,50.034975
LOBLAW PHARMACY #1550,PHARMACY DEPARTMENT #1550,MEDICINE HAT,Alberta,NA,NA
LONDON DRUGS #60,104-3201 13 AVE SE,MEDICINE HAT,Alberta,-110.6617663,50.0088442
MACKENZIE DRUGS,301 NORTH RAILWAY ST SE,MEDICINE HAT,Alberta,-110.6720752,50.0407761
PHARMASAVE #302,58 8 ST NW,MEDICINE HAT,Alberta,-110.6885985,50.0501244
REXALL #7273,105-73 7 ST SE,MEDICINE HAT,Alberta,-110.685228,50.0320559
REXALL #7274,101-3215 DUNMORE RD SE,MEDICINE HAT,Alberta,-110.64651,50.007928
SAFEWAY PHARMACY #8801,139-3292 DUNMORE RD SE,MEDICINE HAT,Alberta,-110.6472393,50.0039649
SAFEWAY PHARMACY #8915,615 DIVISION AVE SE,MEDICINE HAT,Alberta,-110.6852333,50.0330144
SANDSTONE PHARMACIES CARRY DRIVE,139-116 CARRY DR SE,MEDICINE HAT,Alberta,-110.642398,50.0082183
SANDSTONE PHARMACIES CRESCENT HEIGHTS,25 8 ST NW,MEDICINE HAT,Alberta,-110.6878687,50.0495061
SAVE-ON-FOODS PHARMACY #6643,1820 STRACHAN RD SE,MEDICINE HAT,Alberta,-110.6499086,49.9986752
SHOPPERS DRUG MART #2304,2440 DIVISION AVE NW,MEDICINE HAT,Alberta,-110.688291,50.0636295
SHOPPERS DRUG MART #322,140-3292 DUNMORE RD SE,MEDICINE HAT,Alberta,-110.6472393,50.0039649
SOLUTIONS CLINICAL PHARMACY INC.,1-2020 STRACHAN ROAD SE,MEDICINE HAT,Alberta,-110.6673367,50.0016566
SOUTH COUNTRY CO-OP LIMITED @ NORTHLANDS PHARMACY,10 NORTHLANDS WAY NE,MEDICINE HAT,Alberta,-110.685614,50.06277
SOUTH COUNTRY CO-OP LTD @13 AVE PHARMACY,109-3030 13 AVE SE,MEDICINE HAT,Alberta,-110.6683365,49.9944268
SOUTHVIEW PHARMACY,109-1424 SOUTHVIEW DR SE,MEDICINE HAT,Alberta,-110.6628069,50.010365
THE BOYLAN PHARMASAVE #303,407 7 ST SW,MEDICINE HAT,Alberta,-110.6970788,50.032213
VISTA PARK PHARMACY,102B-450 VISTA DR SE,MEDICINE HAT,Alberta,-110.6802571,49.9929241
WAL-MART PHARMACY #3150,2051 STRACHAN RD SE,MEDICINE HAT,Alberta,-110.6442197,49.9935054
REXALL #7280 ,109 MAIN ST,MILK RIVER,Alberta,-112.0868396,49.148538
REXALL #7511 ,5010 50 AVE,MILLET,Alberta,-113.4726276,53.0956977
CHAMPLAIN PHARMACY,111-9918 100 ST,MORINVILLE,Alberta,-113.645819,53.8010354
LOBLAW PHARMACY #4008,8901 100 ST,MORINVILLE,Alberta,-113.6472168,53.7864833
MEDICINE CHEST GUARDIAN DRUGS,10013 100 ST,MORINVILLE,Alberta,-113.644433,53.8028358
MEDS & CARE PHARMACY,9507 100 ST,MORINVILLE,Alberta,-113.644407,53.795805
MORINVILLE PHARMACY,103-10507 100 AVE,MORINVILLE,Alberta,-113.6552649,53.8014829
ROYAL CARE COMPOUNDING PHARMACY,5119 50 ST,MUNDARE,Alberta,-112.3389519,53.5936639
SANDSTONE PHARMACIES NANTON,2212 20 ST,NANTON,Alberta,-113.7745548,50.3477022
COSTCO PHARMACY #1270,2584 46 AVE E,NISKU,Alberta,-113.5576037,53.3075312
NOBLEFORD PHARMACY AND COMPOUNDING,221 KING ST,NOBLEFORD,Alberta,-113.0541619,49.8822299
COSTCO PHARMACY #1069,202-104 SOUTHBANK BLVD,OKOTOKS,Alberta,-113.9458819,50.70622
DRUGSTORE PHARMACY #4389,9 SANDSTONE GATE,OKOTOKS,Alberta,-113.9807045,50.731638
HEALTHLAND PHARMACY,102-116 SOUTHBANK BLVD,OKOTOKS,Alberta,-113.9444399,50.7046072
IDA CRYSTALRIDGE PHARMACY,106-26 CRYSTALRIDGE DR,OKOTOKS,Alberta,-113.9566016,50.7236758
OKOTOKS H.C. PHARMACY,1-74 ELIZABETH ST,OKOTOKS,Alberta,-113.9791184,50.7260162
PHARMASAVE MILLIGAN DRIVE,2-100 MILLIGAN DR,OKOTOKS,Alberta,-113.9667266,50.7325974
SAFEWAY PHARMACY #8917,610 BIG ROCK LANE,OKOTOKS,Alberta,-113.9798038,50.7169203
SAVE-ON-FOODS PHARMACY #6623,400-100 SOUTHBANK BLVD,OKOTOKS,Alberta,-113.948652,50.7071928
SHOPPERS DRUG MART #2401,171-31 SOUTHRIDGE DR,OKOTOKS,Alberta,-113.9743902,50.7135067
SOBEYS PHARMACY #1130,700 CORNERSTONE,OKOTOKS,Alberta,-113.9727084,50.7055527
SOUTHBANK REMEDY'S RX,120-158 SOUTHBANK ST,OKOTOKS,Alberta,-113.9444414,50.705776
VILLAGE LANE PHARMACY,15-1300 VILLAGE LANE,OKOTOKS,Alberta,-113.9835193,50.7195192
WAL-MART PHARMACY #5708,500-201 SOUTHRIDGE DR,OKOTOKS,Alberta,-113.9720779,50.7056653
WESTMOUNT REMEDY'S RX PHARMACY,1031-200 SOUTHRIDGE DR,OKOTOKS,Alberta,-113.9782454,50.7066388
PREFERREDRX PHARMACY,1-4601 50 AVE,OLDS,Alberta,-114.103461,51.7946934
REXALL #7213,5015 50 AVE,OLDS,Alberta,-114.1050856,51.7913637
SHOPPERS DRUG MART #2321,4607 50 AVE,OLDS,Alberta,-114.1039066,51.7936336
WAL-MART PHARMACY #1084,400-6900 46 ST,OLDS,Alberta,-114.1389568,51.7968213
ONOWAY HEALTHCARE PHARMACY,4927 LAC STE ANNE TR S,ONOWAY,Alberta,-114.1917523,53.7036961
ANDERSON DRUG BY FRESON BROS PEACE RIVER,7900 99 AVE,PEACE RIVER,Alberta,-117.3347974,56.2349513
MINT HEALTH + DRUGS PEACE RIVER,10013 100 AVE,PEACE RIVER,Alberta,-117.2890466,56.2336304
PEACE RIVER VALUE DRUG MART,10027 100 ST,PEACE RIVER,Alberta,-117.2898558,56.2326815
SHOPPERS DRUG MART #2312,9925 78 ST,PEACE RIVER,Alberta,-117.3375805,56.2347194
WAL-MART PHARMACY #1068,9701 78 ST,PEACE RIVER,Alberta,-117.3387246,56.2377032
PENHOLD PHARMACY,3-1380 ROBINSON AVE,PENHOLD,Alberta,-113.870129,52.1394137
THE PICTURE BUTTE PHARMACY (PHARMASAVE #388),309 JAMIESON AVE,PICTURE BUTTE,Alberta,-112.7787793,49.8767305
KOEGLER'S PHARMASAVE,1334 VETERANS ST,PINCHER CREEK,Alberta,-113.9466005,49.49527
REXALL #7266,789 MAIN ST,PINCHER CREEK,Alberta,-113.9456207,49.4858807
WAL-MART PHARMACY #1070,1100 TABLE MOUNTAIN,PINCHER CREEK,Alberta,-113.9446846,49.4994396
LOBLAW PHARMACY #4397,5561 HWY 53,PONOKA,Alberta,-113.5942051,52.6724549
PONOKA IDA DRUGSTORE,5020 50 ST,PONOKA,Alberta,-113.5760418,52.6768815
PONOKA PROFESSIONAL PHARMACY,20-5011 48 AVE,PONOKA,Alberta,-113.578533,52.6744273
REXALL #7223,3-4502 50 ST,PONOKA,Alberta,-113.5801118,52.6717848
SHOPPERS DRUG MART #357,5015 50 ST,PONOKA,Alberta,-113.5754076,52.6766329
PROVOST IDA PHARMACY,5010 50 ST,PROVOST,Alberta,-110.264735,52.3516317
RAYMOND PHARMACY LTD.,90 BROADWAY N,RAYMOND,Alberta,-112.6628115,49.463114
SNOW'S PHARMACY INC.,53A BROADWAY N,RAYMOND,Alberta,-112.6618962,49.462514
ASPIRE REMEDY'S RX PHARMACY,120-2810 BREMNER AVE,RED DEER,Alberta,-113.8107271,52.2452836
CARE GATEWAY RED DEER PHARMACY,5209 50 AVE,RED DEER,Alberta,-113.8135987,52.2712213
CENTRAL ALBERTA CO-OP LTD. TIMBERLANDS PHARMACY,3101-499 TIMBERLANDS DR,RED DEER,Alberta,-113.7657924,52.2839516
CENTRAL ALBERTA CO-OP PHARMACY #1,140-4707 50 ST,RED DEER,Alberta,-113.8059651,52.2687797
CENTRAL ALBERTA CO-OP PHARMACY #5,13-69 DUNLOP ST,RED DEER,Alberta,-113.7650756,52.2544118
COSTCO PHARMACY #164,162 LEVA AVE,RED DEER,Alberta,-113.8194969,52.2130441
CRONQUIST PHARMACY,3-4324 54 AVE,RED DEER,Alberta,-113.8228055,52.2641084
DEER PARK IDA PHARMACY,1-255 DAVISON DR,RED DEER,Alberta,-113.7570745,52.2573158
GAETZ AVENUE PHARMACY,120-3410 50 AVE,RED DEER,Alberta,-113.814738,52.2544894
HIGHLAND GREEN REMEDY'S RX PHARMACY,3-88 HOWARTH ST,RED DEER,Alberta,-113.8368043,52.2823563
JOHNSTONE IDA PHARMACY,100-2 JEWELL ST,RED DEER,Alberta,-113.8397805,52.3018149
LOBLAW PHARMACY #1579,5016 51 AVE,RED DEER,Alberta,-113.8173262,52.2700068
LONDON DRUGS #24,109-2004 50 AVE,RED DEER,Alberta,-113.816512,52.233946
MEDICINE SHOPPE PHARMACY 251,3805 ROSS ST,RED DEER,Alberta,-113.7855315,52.2664965
MEDICINE SHOPPE PHARMACY 341,130-2950 22 ST,RED DEER,Alberta,-113.7653061,52.238115
MILLERDALE PHARMACY,5201 43 ST,RED DEER,Alberta,-113.8207809,52.2620937
NORTH GAETZ PHARMACY,120-7101 50 AVE,RED DEER,Alberta,-113.8126172,52.2961932
NORTHEY REMEDY'S RX PHARMACY,190 NORTHEY AVE,RED DEER,Alberta,-113.8264915,52.3018638
NOTRE DAME PHARMASAVE,1109-2827 30 AVE,RED DEER,Alberta,-113.7650013,52.2454371
PARSONS PHARMACY,1C-4755 49 ST,RED DEER,Alberta,-113.8078877,52.2675252
PETER'S PHARMACY COMPOUNDING & HOME HEALTH,B-3617 50 AVE,RED DEER,Alberta,-113.813091,52.256795
PHARMASAVE SKYWAY,115-4309 52 AVE,RED DEER,Alberta,-113.8194837,52.2625401
PHARMASAVE TIMBERLANDS,5101-20 THOMLISON AVE,RED DEER,Alberta,-113.7481487,52.2741972
PINE PLAZA IDA PHARMACY,5-6791 50 AVE,RED DEER,Alberta,-113.8148249,52.256664
PIPER IDA PHARMACY,105-3215 49 AVE,RED DEER,Alberta,-113.8114225,52.2511651
PLAZA 67 IDA PHARMACY,120-6075 67A ST,RED DEER,Alberta,-113.8309445,52.2895634
PLAZA IDA DISPENSARY,6A-5030 47 AVE,RED DEER,Alberta,-113.8059648,52.2699408
REXALL #7271,4826 ROSS ST,RED DEER,Alberta,-113.8106513,52.2693636
REXALL #7272,4705 48 AVE,RED DEER,Alberta,-113.8086978,52.2664355
ROSS ST IDA PHARMACY,4814A 50 ST,RED DEER,Alberta,-113.8099841,52.2691592
SAFEWAY PHARMACY #8877,4408 50 AVE,RED DEER,Alberta,-113.8130888,52.2632002
SAVE-ON-FOODS PHARMACY #6682,6720 52 AVE,RED DEER,Alberta,-113.8176748,52.2901848
SAVE-ON-FOODS PHARMACY #6686,3020 22 ST,RED DEER,Alberta,-113.7683893,52.2389103
SHOPPERS DRUG MART #2306,1 CHAMBERS AVE,RED DEER,Alberta,-113.767438,52.2852792
SHOPPERS DRUG MART #2392,2A-6315 HORN ST,RED DEER,Alberta,-113.8366879,52.2832153
SHOPPERS DRUG MART #2415,1-6320 50 AVE,RED DEER,Alberta,-113.81467,52.284625
SHOPPERS DRUG MART #326,A6-4900 MOLLY BANNISTER DR,RED DEER,Alberta,-113.8135639,52.2449622
SOBEYS PHARMACY #1147,200-6380 50 AVE,RED DEER,Alberta,-113.8161658,52.2867358
SOBEYS PHARMACY #3105,2110 50 AVE,RED DEER,Alberta,-113.8165223,52.2378752
TAYLOR PHARMASAVE 310,150-6900 TAYLOR DR,RED DEER,Alberta,-113.8387638,52.2915347
WAL-MART PHARMACY #3075,PARKLAND MALL SHOPPING CENTRE,RED DEER,Alberta,-113.8101136,52.2868182
WAL-MART PHARMACY #3194,2010 50 AVE,RED DEER,Alberta,-113.8185388,52.2364763
WESTPARK DRUGS IDA,3722 57 AVE,RED DEER,Alberta,-113.83069,52.258039
PHARMASAVE #304,114 BROADWAY AVE E,REDCLIFF,Alberta,-110.7867242,50.0767621
SHANE'S GUARDIAN PHARMACY,4926 49 ST,REDWATER,Alberta,-113.1090932,53.9513915
THEO'S PHARMACY,3-4808 49 AVE,REDWATER,Alberta,-113.1072254,53.9509624
RIMBEY PHARMASAVE #375,4934 50 AVE,RIMBEY,Alberta,-114.2368831,52.6398449
RIMBEY VALUE DRUG MART,4917 50 AVE,RIMBEY,Alberta,-114.2369095,52.6394873
ALPINE VALUE DRUG MART,5132 49 ST,ROCKY MOUNTAIN HOUSE,Alberta,-114.9180885,52.3770953
DRUGSTORE PHARMACY #9052,5520 46 ST,ROCKY MOUNTAIN HOUSE,Alberta,-114.9142653,52.3844728
EVERGREEN CO-OP PHARMACY,4327 45 ST,ROCKY MOUNTAIN HOUSE,Alberta,-114.9072654,52.3675966
ROCKY IDA PHARMACY,5033B 50 ST,ROCKY MOUNTAIN HOUSE,Alberta,-114.9190748,52.3756297
SHOPPERS DRUG MART #343,1 GATEWAY CROSSING,ROCKY MOUNTAIN HOUSE,Alberta,-114.915321,52.378539
COSTCO PHARMACY #1076,300-293020 CROSSIRON COMMON,ROCKY VIEW,Alberta,-113.9831178,51.2108005
SHOPPERS DRUG MART #2389,CROSSIRON MILLS MALL,ROCKY VIEW,Alberta,-113.9936005,51.2028946
COMMUNITY HEALTH PHARMACY,5016 50 ST,SANGUDO,Alberta,-114.903374,53.8884908
SEXSMITH PHARMACY,9805 103 ST,SEXSMITH,Alberta,-118.7860257,55.346931
ASPEN PHARMACY,955-3890 SHERWOOD DR,SHERWOOD PARK,Alberta,-113.2941341,53.5555765
BRENTWOOD PHARMASAVE,101-50 BRENTWOOD BLVD,SHERWOOD PARK,Alberta,-113.2947282,53.5144504
COSTCO PHARMACY #544,2201 BROADMOOR BLVD,SHERWOOD PARK,Alberta,-113.3175235,53.546587
EMERALD HILLS PHARMASAVE,815-8005 EMERALD DR,SHERWOOD PARK,Alberta,-113.2739834,53.5660174
LOBLAW PHARMACY #1567,100-410 BASELINE RD,SHERWOOD PARK,Alberta,-113.292934,53.5425111
LONDON DRUGS #20,999 FIR ST,SHERWOOD PARK,Alberta,-113.320982,53.5132382
MEDICINE SHOPPE PHARMACY 365,172-270 BASELINE RD,SHERWOOD PARK,Alberta,-113.3120931,53.5421221
MINT HEALTH + DRUGS SHERWOOD,109-65 CHIPPEWA RD,SHERWOOD PARK,Alberta,-113.323844,53.536083
MINT HEALTH + DRUGS: FESTIVAL PLACE,165-161 FESTIVAL WAY,SHERWOOD PARK,Alberta,-113.2983392,53.5276265
NOTTINGHAM PHARMACY,300-664 WYE RD,SHERWOOD PARK,Alberta,-113.2747296,53.5126616
NOTTINGHAM PHARMASAVE,140-80 CHIPPEWA RD,SHERWOOD PARK,Alberta,-113.325884,53.5355398
REXALL #7233,5-101 BREMNER DR,SHERWOOD PARK,Alberta,-113.3067089,53.5417285
REXALL #7234,11-301 WYE RD,SHERWOOD PARK,Alberta,-113.3144327,53.5114509
REXALL #7244,80 CHIPPEWA RD,SHERWOOD PARK,Alberta,-113.3252654,53.5355981
ROSEWOOD PHARMACY,120-201 FESTIVAL WAY,SHERWOOD PARK,Alberta,-113.2969307,53.5270317
SAFEWAY PHARMACY #8874,985 FIR ST,SHERWOOD PARK,Alberta,-113.3243891,53.5134297
SAFEWAY PHARMACY #8924,110-2020 SHERWOOD DR,SHERWOOD PARK,Alberta,-113.2937266,53.5290179
SAVE-ON-FOODS PHARMACY #6663,81 FIR ST,SHERWOOD PARK,Alberta,-113.3163351,53.513302
SAVE-ON-FOODS PHARMACY #6678,60 BROADWAY BLVD,SHERWOOD PARK,Alberta,-113.3165583,53.5437125
SAVE-ON-FOODS PHARMACY #6679,10-4005 CLOVER BAR RD,SHERWOOD PARK,Alberta,-113.2743761,53.5581889
SHOPPERS DRUG MART #2313,20-4005 CLOVER BAR RD,SHERWOOD PARK,Alberta,-113.2737401,53.5574762
SHOPPERS DRUG MART #2427,5-1020 SHERWOOD DR,SHERWOOD PARK,Alberta,-113.3184951,53.512989
SHOPPERS DRUG MART #333,500-2020 SHERWOOD DR,SHERWOOD PARK,Alberta,-113.2935439,53.5317953
SHOPPERS DRUG MART #380,120-550 BASELINE RD,SHERWOOD PARK,Alberta,-113.2676165,53.5422962
SOBEYS PHARMACY #3153,688 WYE RD,SHERWOOD PARK,Alberta,-113.2718675,53.512714
SYNERGY PHARMACY,153-501 BETHEL DR,SHERWOOD PARK,Alberta,-113.3034986,53.5449934
WAL-MART PHARMACY #1123,400-7000 EMERALD DR,SHERWOOD PARK,Alberta,-113.2789538,53.5692137
WAL-MART PHARMACY #3154,239 WYE RD,SHERWOOD PARK,Alberta,-113.3171759,53.5110808
LOBLAW PHARMACY #4900,100 MAIN ST SW,SLAVE LAKE,Alberta,-114.7736023,55.2803789
MEDICINE SHOPPE PHARMACY 403,102-102 6 AVE SW,SLAVE LAKE,Alberta,-114.772227,55.279618
REXALL #7218,233 MAIN ST NE,SLAVE LAKE,Alberta,-114.7711088,55.2833127
SHOPPERS DRUG MART #2325,300-1500 MAIN ST SW,SLAVE LAKE,Alberta,-114.7723031,55.2808203
SLAVE LAKE APPLE DRUGS,108 6 AVE NW,SLAVE LAKE,Alberta,-114.7723742,55.2872078
WAL-MART PHARMACY #1030,601 1500 MAIN ST SW,SLAVE LAKE,Alberta,-114.7852061,55.2720677
SHANE'S IDA PHARMACY,37 WHEATLAND AVE,SMOKY LAKE,Alberta,-112.4720753,54.1133404
SMOKY LAKE PHARMACHOICE,134 WHITE EARTH ST,SMOKY LAKE,Alberta,-112.4735511,54.1128684
DIV'S PHARMACY PHARMACHOICE,4517 50 ST,SPIRIT RIVER,Alberta,-118.8364413,55.7780449
REXALL #7510,4508 50 ST,SPIRIT RIVER,Alberta,-118.8374132,55.7778043
ALI'S DRUG MART,214-11 WESTWIND DR,SPRUCE GROVE,Alberta,-113.8845206,53.5651371
CONNECTCARE PHARMACY SPRUCE GROVE,214-20 WESTWIND DR,SPRUCE GROVE,Alberta,-113.8845206,53.5651371
HIGHWAY 16A IPHARMACY,10 98 MCLEOD AVE,SPRUCE GROVE,Alberta,-113.9108296,53.5416721
HILLSIDE PHARMASAVE,114-636 KING ST,SPRUCE GROVE,Alberta,-113.8945143,53.5574151
LOBLAW PHARMACY #1565,10-110 JENNIFER HEIL WAY,SPRUCE GROVE,Alberta,-113.9335328,53.5440227
MEDICINE SHOPPE PHARMACY 380,4A-420 KING ST,SPRUCE GROVE,Alberta,-113.8994833,53.5461833
MEDICINE SHOPPE PHARMACY 410,108-1 HAWTHORNE GATE,SPRUCE GROVE,Alberta,-113.9335748,53.5533822
PARKLAND VILLAGE PHARMACY,32-53222 RANGE RD 232,SPRUCE GROVE,Alberta,-113.8854256,53.6360716
PROGRESSIVE HEALTH PHARMACY,100-210 MCLEOD AVE,SPRUCE GROVE,Alberta,-113.904462,53.541908
REXALL #7227,108-505 QUEEN ST,SPRUCE GROVE,Alberta,-113.9072144,53.5449044
SAFEWAY PHARMACY #8897,94 MCLEOD AVE,SPRUCE GROVE,Alberta,-113.9125312,53.5419842
SAVE-ON-FOODS PHARMACY #6608,100-121 CENTURY CROSS,SPRUCE GROVE,Alberta,-113.8806115,53.5421504
SHOPPERS DRUG MART #341,WESTLAND MALL,SPRUCE GROVE,Alberta,-113.916158,53.5424458
SHOPPERS DRUG MART #368,100-131 CENTURY CROSSING RD,SPRUCE GROVE,Alberta,-113.882213,53.54215
SPRUCE GROVE PHARMACY,113-187 HWY 16A,SPRUCE GROVE,Alberta,-113.928975,53.5397278
SPRUCE PRO PHARMACY,50-172 HWY 16A,SPRUCE GROVE,Alberta,-113.927066,53.5422974
TRI WELLNESS MD PHARMACY,104-7 TRI LEISURE WAY,SPRUCE GROVE,Alberta,-113.9368092,53.5496435
WAL-MART PHARMACY #3637,90 CAMPSITE RD,SPRUCE GROVE,Alberta,-113.9323599,53.5397819
COSTCO PHARMACY #1157,1075 ST. ALBERT TR,ST ALBERT,Alberta,-113.6370634,53.6693711
DX PHARMACY,2505 TUDOR GLEN MARKET,ST ALBERT,Alberta,-113.609788,53.620149
GIROUX PHARMASAVE,215-4 VERSAILLES AVE,ST ALBERT,Alberta,-113.6715193,53.6397281
GRANDIN PRESCRIPTION CENTRE INC.,1 ST ANNE ST,ST ALBERT,Alberta,-113.6284761,53.631028
HEALTHY CHOICE PHARMACY 101,9430 MCKENNEY AVE,ST ALBERT,Alberta,-113.650236,53.6370126
KINGSRIDGE PHARMACY,102-225 CARLETON DR,ST ALBERT,Alberta,-113.5696532,53.6492181
LIBERTON PHARMACY,110-31 LIBERTON DR,ST ALBERT,Alberta,-113.6282527,53.6456215
LOBLAW PHARMACY #1568,101 ST. ALBERT RD,ST ALBERT,Alberta,-113.603765,53.6206329
LONDON DRUGS #48,104-375 ST. ALBERT TR,ST ALBERT,Alberta,-113.6115034,53.6223927
MEDICINE SHOPPE PHARMACY 200,102-25 ST MICHAEL ST,ST ALBERT,Alberta,-113.6244326,53.6343831
MIDTOWN APOTHECARY,100-41 ST. THOMAS ST,ST ALBERT,Alberta,-113.6260158,53.6328447
QUICK CARE PHARMACY,238-2 HEBERT RD,ST ALBERT,Alberta,-113.6058915,53.6226503
REXALL #7249,100-10 MCKENNEY AVE,ST ALBERT,Alberta,-113.6272428,53.6420032
RIVERCREST PHARMACY,1-367 ST. ALBERT TR,ST ALBERT,Alberta,-113.6235943,53.6383242
SAFEWAY PHARMACY #8859,300-2 HEBERT RD,ST ALBERT,Alberta,-113.6065499,53.622473
SAFEWAY PHARMACY #8863,395 ST. ALBERT RD,ST ALBERT,Alberta,-113.6255977,53.6451245
SALVUS RXELLENCE PROFESSIONAL DISPENSARY,44-143 LIBERTON DR,ST ALBERT,Alberta,-113.630366,53.652271
SAVE-ON-FOODS PHARMACY #6665,500-140 ST. ALBERT RD,ST ALBERT,Alberta,-113.6127596,53.6212124
SAVE-ON-FOODS PHARMACY #6675,740 ST. ALBERT RD,ST ALBERT,Alberta,-113.6328651,53.6616343
SHOPPERS DRUG MART #2300,100-665 ST. ALBERT RD,ST ALBERT,Alberta,-113.62898,53.656376
SHOPPERS DRUG MART #323,108-392 ST. ALBERT TR,ST ALBERT,Alberta,-113.6284513,53.6441395
SHOPPERS DRUG MART #379,570-140 ST. ALBERT TR,ST ALBERT,Alberta,-113.6117,53.620256
SOBEYS PHARMACY #3101,392 ST. ALBERT RD,ST ALBERT,Alberta,-113.6274417,53.6443088
ST. ALBERT PHARMACHOICE,102-24 INGLEWOOD DR,ST ALBERT,Alberta,-113.6263447,53.6512013
SUMMIT DRUG MART,101-200 BOUDREAU RD,ST ALBERT,Alberta,-113.6274046,53.6534912
WAL-MART PHARMACY #3087,700 ST. ALBERT RD,ST ALBERT,Alberta,-113.6335013,53.6599253
CATALYST PHARMACY,5009 50 AVE,ST PAUL,Alberta,-111.2976513,53.9910401
CORNERSTONE CO-OP PHARMACY AT ST. PAUL,3-5017 42 ST,ST PAUL,Alberta,-111.2714538,53.9928627
DRUGSTORE PHARMACY #9021,5701 50 AVE,ST PAUL,Alberta,-111.3179003,53.9898232
GREG'S VALUE DRUG MART INC.,4448 50 AVE,ST PAUL,Alberta,-111.2823933,53.9917075
SHOPPERS DRUG MART #1248,4901 39 ST,ST PAUL,Alberta,-111.261616,53.990501
SHOPPERS SIMPLY PHARMACY #3895,5014 51 ST,ST PAUL,Alberta,-111.3000125,53.9921541
APPLE DRUGS,4825 50 ST,STETTLER,Alberta,-112.7048004,52.3237103
LOBLAW PHARMACY #4972,5106 47 AVE,STETTLER,Alberta,-112.7063971,52.320846
SHOPPERS DRUG MART #2409,4718 50 ST,STETTLER,Alberta,-112.705471,52.322548
STETTLER IDA PHARMACY,4934 50 ST,STETTLER,Alberta,-112.705661,52.325633
WAL-MART PHARMACY #1034,4721 70 ST,STETTLER,Alberta,-112.7383589,52.3233294
APOLLO DRUG STORE,800-4305 SOUTH PARK DR,STONY PLAIN,Alberta,-113.977728,53.538775
CO-OP PHARMACY STONY PLAIN,4917A 50 AVE,STONY PLAIN,Alberta,-114.0067781,53.5300823
MEDICINE SHOPPE PHARMACY 404,103-4807 44 AVE,STONY PLAIN,Alberta,-113.9697239,53.5379435
MINT HEALTH + DRUGS MAIN STREET,5106 50 ST,STONY PLAIN,Alberta,-114.0074323,53.5283295
MINT HEALTH + DRUGS MERIDIAN,2-4402 37 ST,STONY PLAIN,Alberta,-113.9822013,53.5380164
MY DAY PHARMACY,105-5101 48 ST,STONY PLAIN,Alberta,-114.0012831,53.528786
REXALL #7241,4801 50 AVE,STONY PLAIN,Alberta,-114.0029841,53.5302633
SAFEWAY PHARMACY #8885,4202 SOUTH PARK DR,STONY PLAIN,Alberta,-113.9800501,53.5403901
SAMS DRUG MART,102-4620 48 ST,STONY PLAIN,Alberta,-114.002934,53.532964
SAM'S PHARMACY,5012 50 ST,STONY PLAIN,Alberta,-114.007623,53.528956
SHOPPERS DRUG MART #2402,400-4300 SOUTH PARK DR,STONY PLAIN,Alberta,-113.98012,53.538572
STONY PLAIN WELLNESS & COMPOUNDING PHARMACY,106-5013 48 ST,STONY PLAIN,Alberta,-114.0011195,53.5291989
CALGARY CO-OP PHARMACY #25,100 EDGEFIELD PL,STRATHMORE,Alberta,-113.3753783,51.0386134
LOBLAW PHARMACY #4952,101-900 PINE RD,STRATHMORE,Alberta,-113.3932464,51.0358535
MINT HEALTH + DRUGS: CRYSTAL RIDGE,2-55 WHEATLAND TR,STRATHMORE,Alberta,-113.399326,51.0588
SHOPPERS DRUG MART #2442,117-100 RANCH MARKET,STRATHMORE,Alberta,-113.3814306,51.0389891
STRATHMORE REMEDY'S RX PHARMACY,216 FOURTH AVE,STRATHMORE,Alberta,-113.395587,51.0414986
STRATHMORE VALUE DRUG MART,132 2 AVE,STRATHMORE,Alberta,-113.395878,51.0434332
WAL-MART PHARMACY #1049,200 RANCH MARKET,STRATHMORE,Alberta,-113.3821277,51.0397324
PHARMASAVE 337,557 MAIN AVE W,SUNDRE,Alberta,-114.6469188,51.795345
SUNDRE COMMUNITY DRUG MART,403 MAIN AVE W,SUNDRE,Alberta,-114.643921,51.796203
SUNDRE FAMILY PHARMACY,12-200 MAIN AVE W,SUNDRE,Alberta,-114.6412029,51.7974973
REXALL #7211,4912 PLAZA AVE,SWAN HILLS,Alberta,-115.4009405,54.7179659
DRUGSTORE PHARMACY #4390,70 HEWLETT PARK LANDNG,SYLVAN LAKE,Alberta,-114.0748021,52.3054396
PELICAN PLACE PHARMACY,110-10 PELICAN PL,SYLVAN LAKE,Alberta,-114.0968058,52.2981887
SHOPPERS DRUG MART #2438,BAYS 8-13 5043 50A ST,SYLVAN LAKE,Alberta,-114.098344,52.309625
SHOPPERS DRUG MART #2450,800-3715 47 AVE,SYLVAN LAKE,Alberta,-114.076012,52.303943
WAL-MART PHARMACY #1102,3420 47 AVE,SYLVAN LAKE,Alberta,-114.063776,52.3053529
JOHNSON'S TABER DRUGS,5204 48 AVE,TABER,Alberta,-112.1462994,49.7841014
PHARMASAVE #340,5011 50 ave,TABER,Alberta,-112.1489665,49.7861894
SOUTH COUNTRY CO-OP LTD. @TABER PHARMACY,4926 46 AVE,TABER,Alberta,-112.150317,49.7800634
WAL-MART PHARMACY #1046,4500 64 ST,TABER,Alberta,-112.1279744,49.7827826
ROYAL CARE PHARMACY  ,4902 HANKIN ST,THORSBY,Alberta,-114.0481944,53.2264886
PETER'S PHARMACY,419 MAIN ST,THREE HILLS,Alberta,-113.2683522,51.7039321
THREE HILLS PHARMACY,424 MAIN ST,THREE HILLS,Alberta,-113.2682979,51.7042399
GUARDIAN PHARMACY TOFIELD,5222 50 ST,TOFIELD,Alberta,-112.6673445,53.3700747
TOFIELD IDA PHARMACY LTD.,5119 50 ST,TOFIELD,Alberta,-112.6671124,53.368854
BALKWILL PHARMACY LTD.,223 MAIN ST,TROCHU,Alberta,-113.2272653,51.8273458
COSTCO PHARMACY #1381 ,12905 BUFFALO RUN BLVD,TSUUT INA,Alberta,-114.1447115,50.9382159
PHARMASAVE TURNER VALLEY ,2-101 SUNSET BLVD,TURNER VALLEY,Alberta,-114.2791517,50.6736211
TWO HILLS PHARMACY  ,1-5019 51 ST,TWO HILLS,Alberta,-111.7455361,53.710484
PHARMASAVE #346,1D-3808 HIGHWAY ST,VALLEYVIEW,Alberta,-117.2831622,55.0502544
REXALL #7206,4705 50 AVE,VALLEYVIEW,Alberta,-117.2758427,55.0689427
FISHER'S VAUXHALL PHARMACY LTD. ,415 2 AVE N,VAUXHALL,Alberta,-112.1041658,50.0679862
DRUGSTORE PHARMACY #4380,4734 50 AVE,VEGREVILLE,Alberta,-112.0436794,53.4918742
JJ'S VALUE DRUG MART,205-5341 50 AVE,VEGREVILLE,Alberta,-112.0657159,53.4985129
MEDICINE SHOPPE PHARMACY 161,4910 50 ST,VEGREVILLE,Alberta,-112.0539402,53.4944383
VEGREVILLE DRUG MART,112-4925 50 AVE,VEGREVILLE,Alberta,-112.0519958,53.4937682
WAL-MART PHARMACY #1071,6809 HWY 16A W,VEGREVILLE,Alberta,-112.0833473,53.5033711
CORNERSTONE CO-OP PHARMACY @ VERMILION,5008B 51 AVE,VERMILION,Alberta,-110.8536395,53.3551187
LONG'S VALUE DRUG MART,4939 50 AVE,VERMILION,Alberta,-110.8521485,53.3537
SHOPPERS DRUG MART #2471,5009 50 AVE,VERMILION,Alberta,-110.8533653,53.3536338
VIKING PHARMACY,5305 51 ST,VIKING,Alberta,-111.7785632,53.0965898
LIFE MED PHARMACY #2  ,218 CENTER ST,VULCAN,Alberta,-113.2631235,50.4034953
WABAMUN PHARMACY LTD  ,5120 51 AVE,WABAMUN,Alberta,-114.4718946,53.557929
DENWOOD PHARMACY,621 10 ST,WAINWRIGHT,Alberta,-110.8561555,52.8373402
DRUGSTORE PHARMACY #4379,2601 14 AVE,WAINWRIGHT,Alberta,-110.8337275,52.8416481
REXALL #7516,118 10 ST,WAINWRIGHT,Alberta,-110.861687,52.833448
WAINWRIGHT VALUE DRUG MART,306 10 ST,WAINWRIGHT,Alberta,-110.8601081,52.834862
WAL-MART PHARMACY #1062,2901 13 AVE,WAINWRIGHT,Alberta,-110.8276257,52.841803
WARBURG FAMILY DRUG STORE ,5020 51 ST,WARBURG,Alberta,-114.3198516,53.1801207
WEMBLEY REMEDY'S RX PHARMACY  ,102-9927 97 ST,WEMBLEY,Alberta,-119.140203,55.1556511
LEIBEL'S PHARMACY  ,7B VILLAGE DR RR2,WESTEROSE,Alberta,-114.028065,52.961099
LOBLAW PHARMACY #4909,10851 100 ST,WESTLOCK,Alberta,-113.8306459,54.1508392
PIDSADOWSKI'S IDA PHARMACY,103-10030 106 ST,WESTLOCK,Alberta,-113.8596182,54.1559229
REXALL #7205,10703 100 AVE,WESTLOCK,Alberta,-113.861973,54.155982
SHOPPERS DRUG MART #2341,10015 107 ST,WESTLOCK,Alberta,-113.8606023,54.1561683
WESTLOCK PRESCRIPTION CENTRE,102-10124 107 ST,WESTLOCK,Alberta,-113.859049,54.1573
MEDICINE SHOPPE PHARMACY 397,5214B 50 AVE,WETASKIWIN,Alberta,-113.3799357,52.9703898
RELIANCE DRUG MART,5520 37A AVE,WETASKIWIN,Alberta,-113.3892143,52.9562798
ROD'S PHARMACY,5520B 50 AVE,WETASKIWIN,Alberta,-113.3883811,52.971094
SAFEWAY PHARMACY #8899,3901 56 ST,WETASKIWIN,Alberta,-113.3883764,52.9585416
SHOPPERS DRUG MART #1589,5215 50 AVE,WETASKIWIN,Alberta,-113.3798877,52.9694902
SHOPPERS DRUG MART #324,4825 50 ST,WETASKIWIN,Alberta,-113.3739878,52.9684092
TOWN & COUNTRY PHARMACY,5104 50 AVE,WETASKIWIN,Alberta,-113.376646,52.970077
WAL-MART PHARMACY #3112,300 DENHAM LANDING,WETASKIWIN,Alberta,-113.3903901,52.954262
WETASKIWIN FAMILY PHARMACY,5101A 50 ST,WETASKIWIN,Alberta,-113.3732518,52.9706478
ADVANCED HEALTH PHARMASAVE #385,5112 50 ST,WHITECOURT,Alberta,-115.6849459,54.1419414
LIFE MED PHARMACY,4740 50 AVE,WHITECOURT,Alberta,-115.6789292,54.1407236
LOBLAW PHARMACY #4202,4420 52 AVE,WHITECOURT,Alberta,-115.6722613,54.1428746
MEDHOUSE PHARMACY & TRAVEL CLINIC,2B-4439 52 AVE,WHITECOURT,Alberta,-115.6714376,54.1418305
REXALL #7203,4702 51 ST,WHITECOURT,Alberta,-115.6886571,54.1381655
WAL-MART PHARMACY #1009,4215 52 AVE,WHITECOURT,Alberta,-115.667235,54.14103